name,latitude,longitude,address
Agro Edu Wisata Kebun Bang Jani,-7.0572098718292,112.77708185397,"Kamp. Du'ur, Desa, Granggurar, Langkap, Kec. Burneh, Kabupaten Bangkalan, Jawa Timur 69121 Bangkalan"
Pantai Rindu,-7.1587656136539,112.77664601534,"Jl. Raya Sukolilo, Polasari, Sukolilo Barat., Kec. Labang, Kabupaten Bangkalan, Jawa Timur 69163 Bangkalan"
Dermaga Rindu,-7.1604397142576,112.77252187671,"Kesek, Kec. Labang, Kabupaten Bangkalan, Jawa Timur 69163 Bangkalan"
Pandela (Pantai Desa Lajing),-6.9723821402239,112.79397372329,"Pocogan, Lajing, Kec. Arosbaya, Kabupaten Bangkalan, Jawa Timur 69515 Bangkalan"
Makam Agung Arosbaya,-6.9592467,112.8448112,"Desa Plakaran, Kecamatan Arosbaya Kab. Bangkalan Bangkalan"
Pantai Biru,-6.8863504944433,113.08062555778,Desa Telaga Biru Tanjung Bumi Kab. Bangkalan Bangkalan
Air Terjun Kokop Dhurjan,-7.0025507058969,113.05961752165,Kab. Bangkalan Bangkalan
Bukit Kapur Parseh,-7.0817932388431,112.75945376932,Kab. Bangkalan Bangkalan
Gunung Geger,-6.9910417,112.9124717,Kab. Bangkalan Bangkalan
Hutan Mangrove Labuhan,-6.8862585605408,112.99280574139,"Labuhan, Sepulu, Labuhan, Bangkalan, Kabupaten Bangkalan, Jawa Timur 69154 Bangkalan"
Pantai Biru,-6.8851246469143,113.07911643418,"Jl. Pelabuhan Telagabiru No.38, Tj. Bumi, Telaga Biru, Kec. Tj. Bumi, Kabupaten Bangkalan, Jawa Timur 69156 Bangkalan"
Pantai Meneron,-6.88921260834,112.943901062,"Desa Maneron, Kecamatan Sepulu, Kab. Bangkalan Bangkalan"
Pantai Rongkang,-7.17791899045,112.895998111,Kab. Bangkalan Bangkalan
Pantai Siring Kemuning,-6.88523734256,113.054686045,"Macajah, Kec. Tj. Bumi, Kabupaten Bangkalan Bangkalan"
Pantai Bumi Anyar,-6.892229741116,113.12432422625,"Desa Lobuk, Kec. Tanjung Bumi, Kabupaten Bangkalan Bangkalan"
Mercusuar,-7.0600273753702,112.67449513954,"Jalan Sembilangan, Socah, Slempit, Pernajuh, Kec. Bangkalan, Kabupaten Bangkalan, Jawa Timur 69161 Bangkalan"
Goa Pelanglangan,-6.9465818945614,112.85970566137,"Plalangan, Buduran, Arosbaya, Makam Air Mata, Buduran, Kec. Arosbaya, Kabupaten Bangkalan, Jawa Timur 69151 Bangkalan"
Situs Benteng Erfprins,-7.0235598245296,112.75110113068,"Pejagan, Kec. Bangkalan, Kabupaten Bangkalan"
Taman Rekreasi Kota Bangkalan,-7.037328920536,112.73978724787,"Jl. Soekarno Hatta, Kec. Bangkalan, Kabupaten Bangkalan, Jawa Timur 69116 Bangkalan"
Stadion Kerapan Sapi R.P Moh Noer,-7.0230719834368,112.76182494603,"Bajik, Bancaran, Kec. Bangkalan, Kabupaten Bangkalan, Jawa Timur 69112 Bangkalan"
Kolla Langgundih,-7.0392299004079,112.70870988466,"Jl. Langgundih Ujung Piring, Lagundi, Ujung Piring, Kabupaten Bangkalan, Jawa Timur 69118 Bangkalan"
Makam Aer Mata Ebu,-6.9462951930168,112.8560111,"Desa Buduran, Arosbaya, Makam Air Mata, Buduran, Kec. Bangkalan, Kabupaten Bangkalan, Jawa Timur 69151 Bangkalan"
Makam Sultan Abdul Kadirun,-7.0279787535541,112.74581921534,"Demangan Barat, Demangan, Kec. Bangkalan, Kabupaten Bangkalan, Jawa Timur 69115 Bangkalan"
Makam Sunan Cendana,-7.1578937775942,112.85441537671,"Ketetang, Kec. Kwanyar, Kabupaten Bangkalan, Jawa Timur 69163 Bangkalan"
Makam Syechona Cholil,-7.0412431545309,112.72345214603,"Jl. Mertajasah, Tajasah, Mertajasah, Kec. Bangkalan, Kabupaten Bangkalan, Jawa Timur 69119 Bangkalan"
Museum Bangkalan Cakraningrat,-7.0473324007048,112.73522183863,"Jl. Soekarno Hatta No.35, Wr 08, Mlajah, Kec. Bangkalan, Kabupaten Bangkalan, Jawa Timur 69116 Bangkalan"
Desa Wisata Tamansari,-8.168024041606,114.25218710055,"Dusun Jambu, Tamansari, Kec. Licin, Kabupaten Banyuwangi, Jawa Timur Banyuwangi"
Desa Wisata Kemiren,-8.2054684000693,114.32245839783,"Desa Kemiren, Kecamatan Glagah, Kabupaten Banyuwangi, Jawa Timur, Indonesia Banyuwangi"
Desa Bangsring,-8.0537442031953,114.43055034483,"Dusun Krajan 1 desa bangsring, kecamatan Wongsorejo, Kabupaten Banyuwangi Banyuwangi"
Desa Wisata Wringin Putih,-8.4736224779687,114.34006747415,Jalan KH Askandar KM 1 Desa Wringinputih Kecamatan Muncar Kabupaten Banyuwangi Provinsi Jawa Timur Banyuwangi
Pantai Rajegwesi,-8.5598760021233,113.93570065498,Kab. Banyuwangi Banyuwangi
Desa Wisata Kaliploso,-8.4462857219055,114.24921643179,"Desa Kaliploso, Kecamatan Cluring, Kabupaten Banyuwangi Banyuwangi"
Desa Wisata Sumbersari,-8.3781476579381,114.20771506972,"Desa Sumbersari, Kecamatan Srono Kab. Banyuwangi Banyuwangi"
Desa Wisata Bengkak,-8.0338381695038,114.43409213644,"Jl. Raya Situbondo, Krajan, Bengkak, Kec. Wongsorejo, Kabupaten Banyuwangi, Jawa Timur Banyuwangi"
Desa Wisata Sumberbulu,-8.226866105571,114.17953491211,Dusun Bulurejo Desa Sumberbulu Kecamatan Songgon Kabupaten Banyuwangi Banyuwangi
Desa Wisata Gombengsari,-8.1359812238688,114.32791471481,Kelurahan Gombengsari Kec. Kalipuro Kab. Banyuwangi Banyuwangi
MUSEUM PERUSNIA,-7.0327604393993,112.74220885397,"Jl. KH. Moh. Kholil Gg. IX No.36, RW.1, Demangan Timur, Kec. Bangkalan, Madura, Jawa Timur 69115 Bangkalan"
Pantai Cemara,-8.2641021857276,114.37307164567,"Desa Pakis, Kec. Banyuwangi, Kabupaten Banyuwangi, Jawa Timur Banyuwangi"
X-Badeng Rafting Adventure,-8.2152892,114.1753168,"Desa Sumberagung, Sumberbulu, Kec. Songgon, Kabupaten Banyuwangi, Jawa Timur Banyuwangi"
Wisata Puncak Mondoleko,-8.2355041,114.1623517,"Desa Sragi, Kec. Songgon, Kabupaten Banyuwangi, Jawa Timur Banyuwangi"
Rowo Bayu,-8.1825161,114.1732371,"Sambungrejo, Bayu, Kec. Songgon, Kabupaten Banyuwangi, Jawa Timur Banyuwangi"
Desa Wisata Margomulyo,-8.25931,114.0587243,Jl.flamboyan Desa Margomulyo Kecamatan Glenmore Kab. Banyuwangi Banyuwangi
Desa Wisata Sumbergondo,-8.278256,114.093157,"Desa Sumbergondo, Kecamatan Glenmore, Kabupaten Banyuwangi, Jawa Timur Banyuwangi"
Desa Wisata Sumberagung,-8.5766667,113.9697995,"Dusun Rejoagung, Sumberagung, Kec. Pesanggaran, Sumatera Utara, Jawa Timur Banyuwangi"
Desa Wisata Sumberarum,-8.2329731,114.1282589,"Sumberarum songgon banyuwangi, Krajan, Sumberarum, Kec. Songgon, Kabupaten Banyuwangi, Jawa Timur Banyuwangi"
Desa Wisata Gintangan,-8.3449759,114.2851414,"Dusun Krajan, Gintangan, Kec. Rogojampi, Kabupaten Banyuwangi, Jawa Timur Banyuwangi"
Desa Wisata Pakis,-8.2523004,114.3481555,Desa Wisata Pakis Banyuwangi
Desa Wisata Sragi,-8.2422321,114.16535,Desa Wisata Sragi Banyuwangi
Kampung Primitif (Prima Inovatif),-8.4507413,114.1761892,Kampung Primitif (Prima Inovatif) Banyuwangi
Desa Wisata Temenggungan,-8.2080154,114.3739527,"Desa Temenggungan, Kec. Banyuwangi, Kabupaten Banyuwangi, Jawa Timur Banyuwangi"
Desa Wisata Kampung Anyar,-8.1736444,114.2712974,"Desa Glagah, Kabupaten Banyuwangi, Provinsi Jawa Timur Banyuwangi"
Desa Wisata Agro Taman Suruh,-8.1957827,114.2957688,DUSUN WONOSARI RT 1 RW 1 DESA TAMANSURUH KECAMATAN GLAGAH KABUPATEN BANYUWANGI Banyuwangi
Desa Wisata Budaya Alasmalang,-8.3158984,114.2516508,"Jalan Ahmad Yani No 3 Desa Alasmalang, Kecamatan Singojuruh, Kabupaten Banyuwangi, Jawa Timur Banyuwangi"
Desa Wisata Budaya Aliyan,-8.3465396,114.2530651,"Desa Aliyan, Kec. Rogojampi, Kabupaten Banyuwangi, Jawa Timur Banyuwangi"
Air Terjun Jagir,-8.1759193,114.2822501,"Dusun Krajan, Kp. Anyar, Kec. Glagah, Kabupaten Banyuwangi, Jawa Timur Banyuwangi"
Air terjun lider,-8.1936682,114.1243079,"Lider, Sumberarum, Kec. Songgon, Kabupaten Banyuwangi, Jawa Timur Banyuwangi"
Air Terjun Temcor,-8.1936682,114.1243079,"Sumber Asih, Sumberarum, Kec. Songgon, Kabupaten Banyuwangi, Jawa Timur Banyuwangi"
Air Terjun Antogan,-8.287063,114.2714384,"Dusun Krajan, Bunder, Kec. Kabat, Kabupaten Banyuwangi, Banyuwangi"
Bangsring Under Water,-8.0532774,114.4294795,"Jl. Raya Banyuwangi Situbondo, Bangsring, Kabupaten Banyuwangi, Jawa Timur Banyuwangi"
De Djawatan,-8.4313706,114.2264032,"Benculuk, Kec. Cluring, Kabupaten Banyuwangi, Jawa Timur Banyuwangi"
Ekowisata Mangrove Bedul,-8.6050174,114.2759594,"Desa Sumberasri, Kecamatan Purwoharjo, Gebang Kandel, Sumberasri, Kec. Purwoharjo, Kabupaten Banyuwangi, Jawa Timur Banyuwangi"
Pantai Grajagan,-8.6081624,114.226929,"Desa Grajagan, Kecamatan Purwoharjo, Kabupaten Banyuwangi Banyuwangi"
Gunung Rante,-8.0994439,114.1966571,"Desa Tamansari, Kabupaten Banyuwangi, Jawa Timur Banyuwangi"
Wisata Kalibendo,-8.1665709,114.2756784,"Kp. Anyar, Kec. Glagah, Kabupaten Banyuwangi, Jawa Timur Banyuwangi"
Kaliklatak Perkebunan,-8.1318221,114.3196962,"Desa Gombengsari, Kecamatan Kalipuro, Kabupaten Banyuwangi, Jawa Timur Banyuwangi"
Kalisawah adventure,-8.2177457,114.1783128,"Desa Sumberbulu, Kec. Songgon, Kabupaten Banyuwangi, Jawa Timur Banyuwangi"
Kawah Ijen,-8.0588236,114.2527131,"Jl. Kawah Ijen, Tamansari, Licin, Kabupaten Banyuwangi, Jawa Timur Banyuwangi"
Mangrove Bengkak,-8.0345768,114.4339364,"Jl. Raya Situbondo, Krajan, Bengkak, Kec. Wongsorejo, Kabupaten Banyuwangi, Jawa Timur Banyuwangi"
Pantai Blimbingsari,-8.2112445,114.3085116,"Jl. Pantai Blibis, Dusun Pacemengan, Blimbingsari, Kec. Rogojampi, Kabupaten Banyuwangi, Jawa Timur Banyuwangi"
Pantai Cemara Kawang,-8.4576773781013,114.35403768546,Pantai Cemara Kawang Banyuwangi
Pantai Mustika Pancer,-8.590205,114.000827,"Dusun Pancer, Sumberagung, Kec. Pesanggaran, Kabupaten Banyuwangi, Jawa Timur Banyuwangi"
Pantai Pulau Santen,-8.216721,114.3855718,"Karangrejo, Kec. Banyuwangi, Kabupaten Banyuwangi, Jawa Timur Banyuwangi"
Pantai Parang Semar,-8.615022,114.1112834,"Purwosari, Buluagung, Siliragung, Kabupaten Banyuwangi, Jawa Timur Banyuwangi"
Pantai Pulau Merah,-8.5986843,113.9961371,"Kecamatan Pesanggaran, Kabupaten Banyuwangi Banyuwangi"
Sendang Seruni,-8.1773991,114.2418842,"Dusun Sumberwatu, Tamansari, Kec. Licin, Kabupaten Banyuwangi, Jawa Timur Banyuwangi"
Pantai Sukamade,-8.561166,113.8865398,"Jln.Sukamade No.99, Dusun Sukamande, Sarongan, Kec. Pesanggaran, Kabupaten Banyuwangi, Jawa Timur Banyuwangi"
Telunjuk Raung,-8.1719285,114.1397547,"Sumber Asih, Sumberarum, Songgon, Kabupaten Banyuwangi, Jawa Timur Banyuwangi"
Sungai Amazon,-7.0413783542228,112.71084650055,"Desa Martajasah, Kab. Bangkalan Bangkalan"
Wisata Alam Banyuanyar,-8.2577476,113.9785798,"Dusun Curah Leduk, Banyuanyar, Kec. Kalibaru, Kabupaten Banyuwangi, Jawa Timur Banyuwangi"
Wisata Goa Sodong,-8.1869936,114.3243464,"Grogol, Kec. Giri, Kabupaten Banyuwangi Banyuwangi"
Wisata Mangrove Kawang,-8.4873375,114.3639898,Desa Wringin Putih Kecamatan Muncar Banyuwangi
Wisata Pinus Songgon,-8.2082054,114.1695457,"Sumberagung, Sumberbulu, Songgon, Kabupaten Banyuwangi Banyuwangi"
X Badeng Adventure,-8.2152945,114.1775055,"Sumberbulu, Kec. Songgon, Kabupaten Banyuwangi. Banyuwangi"
Agro Wisata Astaga Dragon,-8.3800881,114.2879813,"Komis Wetan, Wonosobo, Kec. Srono, Kabupaten Banyuwangi Banyuwangi"
Akbar Zoo,-8.2200172,114.3000097,"Jl. Raya Lijen, Sukosari, Paspan, Glagah, Kabupaten Banyuwangi, Jawa Timur Banyuwangi"
Alam Indah Lestari,-8.3033817,114.3325928,"Krajan, Badean, Kec. Kabat, Kabupaten Banyuwangi, Jawa Timur Banyuwangi"
Atlanta Water Park,-8.3648944,114.1810986,"Krajan II, Kembiritan, Kec. Genteng, Kabupaten Banyuwangi, Jawa Timur Banyuwangi"
Blue Lagoon Swimming Pool,-8.2404656,114.2124004,Desa Songgon Kecamatan Songgon Banyuwangi
Taman Gandrung Terakota,-8.1759237,114.2571174,"Krajan, Tamansari, Licin, Kabupaten Banyuwangi, Jawa Timur Banyuwangi"
Grand Harvest Pool,-8.1774887,114.2506389,"Dusun Krajan, Tamansari, Kec. Licin, Kabupaten Banyuwangi, Jawa Timur Banyuwangi"
Grand Watudodol,-8.0883048,114.415928,"Parasputih, Bangsring, Kec. Wongsorejo, Kabupaten Banyuwangi, Jawa Timur Banyuwangi"
Gumuk Kantong Indah,-8.4155932363244,114.3411788375,"Jl. Pantai gumok kantong, Palurejo, Sumbersewu, Kec. Muncar, Kabupaten Banyuwangi, Jawa Timur Banyuwangi"
Berlian Abadi Pool,-8.1867414,114.3758056,"Jl. Yos Sudarso No.165, Lingkungan Tj., Klatak, Kec. Kalipuro, Kabupaten Banyuwangi, Jawa Timur Banyuwangi"
Jopuro,-8.1867732,114.2802398,"Dusun Rejopuro, Kp. Anyar, Kec. Glagah, Kabupaten Banyuwangi, Jawa Timur Banyuwangi"
Mirah Fantasia,-8.1976955,114.3806131,"Jl. Karimun Jawa No.81, Lateng, Kec. Banyuwangi, Kabupaten Banyuwangi, Jawa Timur Banyuwangi"
Mondoleko,-8.2355041,114.1645404,"Area Pesawahan, Sragi, Songgon, Kabupaten Banyuwangi, Jawa Timur Banyuwangi"
Mutiara Pulau Tabuhan,-8.0562087,114.4312138,"Kemanduran, Bangsring, Kec. Wongsorejo, Kabupaten Banyuwangi, Jawa Timur Banyuwangi"
Wisata Alam Kalongan,-8.1577981,114.305051,"Dusun Krajan, Pesucen, Kec. Kalipuro, Kabupaten Banyuwangi, Jawa Timur Banyuwangi"
Pemandian Pancoran,-8.3097518504153,114.31376251519,"Pancoran, Karangbendo, Kec. Rogojampi, Kabupaten Banyuwangi, Jawa Timur Banyuwangi"
Pemandian Mendut Hijau,-8.220698,114.3597816,Pemandian Mendut Hijau Banyuwangi
Pemandian Taman Suruh,-8.187722,114.290546,"Jl. Perkebunan Kalibendo, Taman Suruh, Glagah, Kabupaten Banyuwangi, Jawa Timur Banyuwangi"
Pantai Tlangoh,-6.8825585579475,113.04782611534,"Temanah, Tlangoh, Kec. Tj. Bumi, Kabupaten Bangkalan, Jawa Timur 69156 Bangkalan"
Petik Buah Naga,-8.568649238916,114.04519139511,"Tekambur, Sumbermulyo, Pesanggaran, Kabupaten Banyuwangi, Jawa Timur Banyuwangi"
PERAHU SARIMUNA,-6.8865422719974,113.0828363,"Jl. Pelabuhan Telagabiru, Telaga Biru, Kec. Tj. Bumi, Kabupaten Bangkalan, Jawa Timur 69156 Bangkalan"
Jembatan Harapan Bancaran,-7.0127471946743,112.76068653068,"Jl. Raya Bancaran, Bancaran, Kec. Bangkalan, Kabupaten Bangkalan, Jawa Timur 69112 Bangkalan"
Rumah Pohon Pinus,-8.2082054,114.1695457,"Sumberagung, Sumberbulu, Kec. Songgon, Kabupaten Banyuwangi, Jawa Timur Banyuwangi"
Samudra Selfie,-8.257384,114.373051,"Jl. Pantai Rejo, Pakis, Kec. Banyuwangi, Kabupaten Banyuwangi, Jawa Timur Banyuwangi"
Goa Kuning,-6.9508585411029,112.86216246859,"Buduran, Kec. Arosbaya, Kabupaten Bangkalan, Jawa Timur 69151 Bangkalan"
Air Terjun Temcor,-8.200438,114.160511,"Sumber Asih, Sumberarum, Songgon, Kabupaten Banyuwangi, Jawa Timur Banyuwangi"
Umbul Aga Puncak,-8.2767488,114.09542,"Dusun Salamrejo, Desa Sumbergondo, Kecamatan Glenmore, Kabupaten Banyuwangi, Jawa Timur Banyuwangi"
Umbul Bening,-8.2790188,114.0909623,"Desa Sumbergondo, Glenmore, Salamrejo, Sumbergondo, Kec. Glenmore, Kabupaten Banyuwangi, Jawa Timur Banyuwangi"
Umbul Pule,-8.2792317,114.0921784,"Jalan Umbul, Jl. Gunungsari, Salamrejo, Sumbergondo, Kec. Glenmore, Kabupaten Banyuwangi, Jawa Timur Banyuwangi"
Villa Bejong,-8.2169454,114.1439997,"Bejong, Sumberarum, Kec. Songgon, Kabupaten Banyuwangi, Jawa Timur Banyuwangi"
Wisata Batu Hitam,-8.2401086,114.2126883,"Pakis, Songgon, Kec. Songgon, Kabupaten Banyuwangi, Jawa Timur Banyuwangi"
Wisata Boom Marina,-8.2074429,114.3847732,"Desa, Kampungmandar, Kec. Banyuwangi, Kabupaten Banyuwangi, Jawa Timur Banyuwangi"
Wisata Waduk Sidodadi,-8.3292178,114.0499202,"Karangharjo, Kec. Glenmore, Kabupaten Banyuwangi, Jawa Timur Banyuwangi"
Green Gumuk Candi,-8.2196329,114.2077712,"Dusun Gumuk Candi RT03/RW04 Songgon, Gumuk Candi, Songgon, Kabupaten Banyuwangi, Jawa Timur Banyuwangi"
Makam Datuk Malik Ibrahim,-8.1984664,114.3753922,"Lateng, Kec. Banyuwangi, Kabupaten Banyuwangi, Jawa Timur Banyuwangi"
Makam KH. Abdullah Faqih,-8.2768703,113.9075663,"Dusun Cemoro, Balak, Kec. Songgon, Kabupaten Banyuwangi, Jawa Timur Banyuwangi"
Museum Blambangan,-8.2208974,114.3677055,"Jalan A. Yani no 78, banyuwangi, Jawa Timur. Banyuwangi"
Agro Kusuma,-7.8822325625785,112.51493791263,"Jl. Abdul Ghani Atas, Kelurahan Ngaglik Batu"
Wisata Pemandian Air Panas Cangar,-7.741408462909,112.53431292279,"Air Panas Cangar, Pemandian Air Panas Cangar, Sumber Brantas, Batu City, East Java Batu"
Batu Agro Apel,-7.8561164352063,112.5267553953,Batu Agro Apel Batu
Goa Pandawa,-7.8520349466398,112.50159842057,"4GX2+3JX, Gunungsari, Kec. Bumiaji, Kota Batu, Jawa Timur 65337 Batu"
Goa Pinus,-7.8471781313977,112.49421747672,"Gg. Mbah Ba&amp;amp;amp;#039;i, Gunungsari, Kec. Bumiaji, Kota Batu, Jawa Timur 65391 Batu"
Taman Langit Gunung Banyak Batu,-7.8532793291964,112.49796416931,"Jl. Gn. Banyak, Gunungsari, Kec. Bumiaji, Kota Batu, Jawa Timur 65312 Batu"
Petik Apel Makmur Abadi,-7.8198856800267,112.52969073713,"Jl. Raya Tulungrejo No.24, Tulungrejo, Kec. Bumiaji, Kota Batu, Jawa Timur 65336 Batu"
Petik Apel Mandiri,-7.8312999915483,112.52916342612,"Jl. Raya Selecta, Punten, Kec. Bumiaji, Kota Batu, Jawa Timur 65336 Batu"
Rafting Kaliwatu,-7.8639104039212,112.53430640227,Jalan Bung Tomo No.19 Jawa Timur 65332 Indonesia Batu
Batu Night Spectacular,-7.8962613971768,112.53460049616,jL.Raya Oro-oro Ombo No.200 Batu
Eco Green Park,-7.8879591972703,112.52776417257,Jl.Oro-oro Ombo No.9A Batu
Jatim Park I,-7.8838704732554,112.5249073662,Jl.Kartika No.2 Batu
Jatim Park II (Museum Satwa),-7.888782149555,112.52963369325,"Jl. Oro-Oro Ombo No.9, Temas, Kec. Batu, Kota Batu, Jawa Timur 65315 Batu"
Jatim Park III,-7.8969053175621,112.55317243743,Jatim Park III Batu
Paralayang,-7.8547786590837,112.49668093814,"Paralayang, Gunungsari, Batu City, East Java Batu"
Taman Dolan,-7.8631459975146,112.55240946956,"Taman Dolan, Jalan Raya Pandanrejo, Giripurno, Batu City, East Java Batu"
Museum Angkut,-7.8789408378778,112.51926964017,Museum Angkut Batu
Desa Wisata Songgokerto,-7.8669161397918,112.49729284085,JL. BUKIT PINUS RT 04 RW 02 SONGGOKERTO Batu
Desa Wisata Sumber Brantas,-7.7573638722441,112.52798767192,"Jl. Raya Sumber Brantas No.120-124, Sumber Brantas, Kec. Bumiaji, Kota Batu, Jawa Timur 65336 Batu"
Desa Wisata Pandanrejo,-7.8656401359277,112.54520890676,Desa Wisata Pandanrejo Batu
Desa Wisata Torongrejo,-7.8861258800776,112.56013806266,"JL Wukir Ratawu No.93, RT.01 RW.05, Desa Torongrejo, Kec. Junrejo, Kota Batu Batu"
Desa Wisata Gunungsari,-7.852712593507,112.5022130292,Jl. Raya Gunungsari No. 10 Kecamatan Tajinan Kabupaten Malang Provinsi Jawa Timur Kode Pos 65172 Batu
Arca Ganesha Boro,-8.13919,112.1464195,"Desa Tuliskriyo, Kec. Sanankulon Blitar"
Arca Gaprang,-8.1181816,112.1862811,"Desa Gaprang, Kec. Kanigoro, Kabupaten Blitar Blitar"
Arca Warak,-8.0150722,112.2243604,"Desa Modangan, Kec.Nglegok, Kabupaten Blitar Blitar"
Candi Bacem,-8.1974046250305,112.2255570518,"Desa Bacem, Kec. Sutojayan, Kabupaten Blitar Blitar"
Candi Gambar Wetan,-7.9679168,112.2388873,"Desa Sumberasri, Kec. Nglegok, Kabupaten Blitar Blitar"
Candi Kalicilik,-7.9980155,112.1381769,"Desa Candirejo, Kec.Ponggok, Kabupaten Blitar Blitar"
Candi Kotes,-8.0505467,112.2858206,"Desa Sukosewu, Kec. Gandusari, Kabupaten Blitar Blitar"
Candi Penataran,-8.0164231,112.2055229,"Desa Penataran, Kec. Nglegok, Kabupaten Blitar Blitar"
Candi Plumbangan,-8.0745253,112.3374487,"Desa Plumbangan, Kecamatan Doko, Kabupaten Blitar Blitar"
Candi Punden Sari,-8.1230644,112.2442671,"Desa Resapombo, Kec.Doko, Kabupaten Blitar Blitar"
Candi Rambut Monte,-7.9619272,112.3641977,"Desa Krisik, Kec. Gandusari, Kabupaten Blitar Blitar"
Candi Sawentar 1,-8.0988304,112.2331953,"Desa Sawentar, Kec. Kanigoro, Kabupaten Blitar Blitar"
Candi Sawentar 2,-8.0997462,112.2305975,"Desa Sawentar, Kec. Kanigoro, Kabupaten Blitar Blitar"
Candi Selotumpuk,-8.1177621,112.3822775,"Desa Pagerwojo, Kec.Kesamben, Kabupaten Blitar Blitar"
Candi Simping / Sumberjati,-8.1587956,112.1343709,"Desa Sumberjati, Kec.Kademangan, Kabupaten Blitar Blitar"
Candi Sirah Kencong,-7.9785152,112.426599,"Desa Ngadirenggo, Kec. Wlingi, Kabupaten Blitar Blitar"
Candi Sumberagung,-8.051117,112.2679228,"Desa Sumberagung, Kec. Gandusari, Kabupaten Blitar Blitar"
Candi Sumbernanas,-8.0113243,112.1405632,"Desa Candirejo, Kec.Ponggok, Kabupaten Blitar Blitar"
Candi Tepas,-8.087143,112.3990465,"Desa Tepas Kec. Kesamben, Kabupaten Blitar Blitar"
Candi Wringin Branjang,-8.0027266,112.2795459,"Desa Gadungan, Kec. Gandusari, Kabupaten Blitar Blitar"
Gong Kyai Pradah,-7.9490516,111.3941785,"Kelurahan Kalipang, Kecamatan Sutojayan, Kabupaten Blitar Blitar"
Kekunaan Jimbe,-8.1350147,112.1241739,"Desa Jimbe, Kec.Kademangan, Kabupaten Blitar Blitar"
Museum Penataran,-8.0125738,112.2067565,"Desa Penataran, Kec. Nglegok, Kabupaten Blitar Blitar"
Pertapaan Kilisuci,-8.0529913,112.0841077,"Desa Bagelenan, Kec. Srengat, Kabupaten Blitar Blitar"
Petilasan Mleri,-8.056215,112.0827924,"Desa Bagelenan Kec.Srengat, Kabupaten Blitar Blitar"
Prasasti Jajar,-8.0698736,112.2982788,"Desa Jajar, Kec.Talun, Kabupaten Blitar Blitar"
Prasasti Jaring,-8.1544272,112.2188864,"Desa Kembangarum, Kec. Sutojayan, Kabupaten Blitar Blitar"
Prasasti Munggut,-8.0730053,112.3241379,"Ds.Babadan, Kec.Wlingi, Kabupaten Blitar Blitar"
Situs Balekambang,-8.0144843,112.220484,"Desa Modangan, Kec.Nglegok, Kabupaten Blitar Blitar"
Situs Gadungan,-8.0000217,112.2816394,"Desa Gadungan Kec. Gandusari, Kabupaten Blitar Blitar"
Situs Slumbung,-7.9678217,112.3172484,Kabupaten Blitar Blitar
Situs Sukosewu,-8.0488426,112.2896913,"Desa Sukosewu, Kec. Gandusari, Kabupaten Blitar Blitar"
Situs Tapan,-8.1336065,112.2732889,"Desa Bendosewu, Kec.Talun, Kabupaten Blitar Blitar"
Vihara Bodhigri,-8.0258608,112.3767505,"Desa Balerejo, Kec. Wlingi, Kabupaten Blitar Blitar"
Wisata Religi Kuningan,-8.1179882,112.1776953,Kabupaten Blitar Blitar
Air Terjun Sirah Kencong,-7.9730441,112.4364437,"Desa Ngadirenggo, Kec. Wlingi, Kabupaten Blitar Blitar"
Air Terjun Umbulwaru,-8.3152875,112.0841462,Kabupaten Blitar Blitar
Bukit Bonsai Watu Lawang,-8.1694962,112.145078,"Ds. Sumberjati Kec. Kademangan, Kabupaten Blitar Blitar"
Goa Embul Tuk,-8.2981637,112.1006865,"Desa Tumpakkepuh, Kec. Bakung, Kabupaten Blitar Blitar"
Hutan Pinus Gogoniti,-8.0695284,112.3997222,Kabupaten Blitar Blitar
Hutan Pinus Loji,-7.9624038,112.3476967,"Desa Tulungrejo, Kec. Gandusari, Kabupaten Blitar Blitar"
Kebun Kopi Karanganyar,-7.9970098,112.2382381,"Desa Modangan, Kec. Nglegok, Kabupaten Blitar Blitar"
Lekso Tubing Adventure,-7.9663861,112.3636667,"Desa Krisik, Kec. Gandusari, Kabupaten Blitar Blitar"
Pantai Gayasan,-8.3153472,112.1198907,"Desa Tumpakkepuh, Kec. Bakung, Kabupaten Blitar Blitar"
Pantai Jolo Sutro,-8.3321337,112.3123156,"Desa Ringinrejo, Kec. Wates, Kabupaten Blitar Blitar"
Pantai Pangi,-8.3128691,112.1085949,"Desa Tumpakkepuh, Kec. Bakung, Kabupaten Blitar Blitar"
Pantai Pasir Putih Gondomayit,-8.3203973,112.1441754,"Desa Tambakrejo, Kec. Wonotirto, Kabupaten Blitar Blitar"
Pantai Pehpulo,-8.3439117,112.2259104,"Desa Sumbersih, Kec. Panggungrejo, Kabupaten Blitar Blitar"
Pantai Serang,-8.3305962,112.2201545,"Desa Serang, Kec. Panggungrejo, Kabupaten Blitar Blitar"
Pantai Tambak Rejo,-8.3161191,112.1246564,"Desa Tambakrejo, Kec. Wonotirto, Kabupaten Blitar Blitar"
Paralayang Gunung Pegat,-8.0438886,112.0892415,"Ds. Ponggok Kec. Ponggok, Kabupaten Blitar Blitar"
Pendakian Gn. Kelud,-7.9688993,112.3540439,"Desa Tulungrejo, Kec. Gandusari, Kabupaten Blitar Blitar"
Perkebunan Sirah Kencong,-7.9761368,112.4279572,"Desa Ngadirenggo, Kec. Wlingi, Kabupaten Blitar Blitar"
Rambut Monte,-7.9619272,112.3677742,"Desa Krisik, Kec. Gandusari, Kabupaten Blitar Blitar"
Badher Bank,-8.1697787,112.354067,"Ds. Tawangrejo Kec. Binangun, Kabupaten Blitar Blitar"
Blitar Park,-8.0699373429831,112.20251692802,"Desa Pojok, Kec. Garum, Kabupaten Blitar Blitar"
Bukit Bunda,-8.1646345,112.1273245,Kabupaten Blitar Blitar
Bukit Telletubies,-7.9588759,112.235687,Kabupaten Blitar Blitar
Istana Sakura,-8.0339696,112.2506032,"Desa Sidodadi, Kec. Garum, Kabupaten Blitar Blitar"
Jati Park,-7.8982397,111.7796313,"Desa Plumbangan Kec. Doko, Kabupaten Blitar Blitar"
Kaloka Lodoyo,-8.1532263,112.2675547,Kabupaten Blitar Blitar
Kampung 1001,-8.1095414,112.2271141,"Desa Sawentar, Kec. Kanigoro, Kabupaten Blitar Blitar"
Kampung Coklat,-8.1567687,112.1696013,"Desa Plosorejo, Kec. Kademangan, Kabupaten Blitar Blitar"
Kampung Wisata Turi Putih,-8.0273972,111.9990106,Kabupaten Blitar Blitar
Kawasan Wisata Ngreco Lahor,-8.1443766,112.4512767,Kabupaten Blitar Blitar
Kawasan Wisata Olak-Alen,-8.1349737,112.4276933,Kabupaten Blitar Blitar
Kesambi Trees Park,-8.0671147,112.1192068,Kabupaten Blitar Blitar
Kolam Renang Penataran,-8.0132658,112.2083165,"Desa Penataran, Kec. Nglegok, Kabupaten Blitar Blitar"
Konyar Hill,-8.1462143,112.3953452,Kabupaten Blitar Blitar
Monumen Trisula,-8.2595069,112.072049,"Desa Bakung, Kec. Bakung, Kabupaten Blitar Blitar"
Taman Ayu Gogoniti,-8.0676598,112.410386,"Desa Sukorejo Kesamben, Kabupaten Blitar Blitar"
Wisata Negeri Dongeng,-8.0533518,112.0992182,"Desa Kawedusan, Kec. Ponggok, Kabupaten Blitar Blitar"
Desa Wisata Plumbangan,-8.0637457,112.3504453,Kabupaten Blitar Blitar
KWE Puspa Jagad,-7.9917741,112.3424759,"Desa Semen Kec. Gandusari, Kabupaten Blitar Blitar"
Agrowisata Belimbing,-7.1274866222391,111.82709412176,Kabupaten Bojonegoro Bojonegoro
Kebun Kopi Kalisat Jampit,-8.0146753099089,114.11159211377,Kabupaten Bondowoso Bondowoso
Air Terjun Blawan,-7.9852007237092,114.17611679842,"Ds. Kalianyar, Kec. Ijen, Kabupaten Bondowoso Bondowoso"
Air terjun Gentongan,-8.023039816246,114.18163174444,"Ds. Kalianyar, Kec. Ijen, Kabupaten Bondowoso Bondowoso"
Air Terjun Goa Tunggal,-7.6718974962164,113.7496521564,"Sumbercanting, Kec. Wringin, Kabupaten Bondowoso Bondowoso"
Air Terjun Tancak Kembar,-7.9337478453419,113.69599262313,"Ds. Andungsari, Kec. Pakem, Kabupaten Bondowoso Bondowoso"
Arung Jeram Bosamba,-7.8742235301783,113.88691386958,"Kec. Taman Krocok, Kabupaten Bondowoso Bondowoso"
Batu So&#039;on Solor,-7.8582447730896,114.07725621335,"Ds. Solor, Kec. Cermee, Kabupaten Bondowoso Bondowoso"
Bosamba Rafting,-7.8743085515757,113.88684949656,Kabupaten Bondowoso Bondowoso
Bukit Mahadewa,-7.9385550311014,113.76510953124,"Ds. Kupang, Kec. Curah Dami, Kabupaten Bondowoso Bondowoso"
Hutan Pelangi Sumberwringin,-7.987122427047,114.00095850899,"Kec. Sumberwringin, Kab. Bondowoso Bondowoso"
Kalipait,-8.0622362155535,114.21633276546,"Curah Macan, Ds. Kalianyar, Kec. Ijen, Kabupaten Bondowoso Bondowoso"
Kawah Ijen,-8.0730723639879,114.22345571006,"Desa Kalianyar, Kabupaten Bondowoso Bondowoso"
Kawah Wurung,-8.0645822259365,114.16144211335,"Ds. Kalianyar, Kec. Ijen, Kabupaten Bondowoso Bondowoso"
Black Lava Plalangan,-8.0095339416092,114.15232496732,"Jl. Kawah Ijen, Kalianyar, Kec. Ijen, Kabupaten Bondowoso Bondowoso"
Patirana P28,-7.9758125680179,113.74132268451,"Kec. Grujugan, Kabupaten Bondowoso Bondowoso"
Pemandian Air Panas Blawan,-7.9870719723884,114.1745795152,"Ds. Kalianyar, Kec. Ijen, Kabupaten Bondowoso Bondowoso"
Pemandangan Arak Arak,-7.7914093688724,113.74310459985,"Jl. Raya Wringin, Ds. Sumbercanting, Kec. Wringin, Kabupaten Bondowoso Bondowoso"
Pendakian Gunung Raung,-8.124728177761,114.04583305356,"Kec. Tlogosari, Kabupaten Bondowoso Bondowoso"
Perkebunan Kopi Arabica,-7.967109662374,114.02026998266,"Jl. Kawah Ijen, Ds. Sukorejo, Kec. Sumberwringin, Kabupaten Bondowoso Bondowoso"
Puncak Megasari,-8.0020333337874,114.12083812499,"Kec. Ijen, Kabupaten Bondowoso Bondowoso"
Potreh Koning,-7.7884858723059,113.73931845433,"Kec. Suboh, Kabupaten Situbondo, Jawa Timur 68354 Bondowoso"
River Tubing Tlogosari,-7.984335635592,113.94784589492,"Kec. Tlogosari, Kabupaten Bondowoso Bondowoso"
Guest House Jampit,-8.0749495594237,114.13958272314,"Jampit, Kec. Ijen, Kabupaten Bondowoso Bondowoso"
Pemandian Al Amin,-7.9392554003188,113.84949110964,"Jl. Raya Pakisan, Krajan I, Kajar, Kec. Tenggarang, Kabupaten Bondowoso Bondowoso"
Pemandian Air Panas Blawan,-7.9873388992376,114.17411940964,"Ds. Kalianyar, Kec. Ijen, Kabupaten Bondowoso Bondowoso"
Pemandian Tasnan Baru,-7.9814147459642,113.8035480115,"Ds. Taman, Kec. Grujugan, Kabupaten Bondowoso Bondowoso"
Pemandian Renang Karisma,-7.8904967582243,113.88607335382,"Kapuran, Kec. Wonosari, Kabupaten Bondowoso Bondowoso"
Pemandian Kelapa Gading,-7.9249808460493,113.84490295382,Kabupaten Bondowoso Bondowoso
Pemandian WOW Putra Demang,-7.8244116285925,113.96569952684,"Besuk, Kec. Klabang, Kabupaten Bondowoso Bondowoso"
Pusat Informasi Megalitik Bondowoso,-7.9963771423877,113.79488198833,"Pekauman, Kec. Grujugan, Kabupaten Bondowoso Bondowoso"
Kebun Raya Silvopastura Sumber Salak,-7.9539253669452,113.77408898331,"Sumber Salak, Kec. Curahdami, Kabupaten Bondowoso Bondowoso"
Rest Area Saung Naga,-7.950772900303,113.99181672588,"Jl. Kawah Ijen, Area Sawah/Kebun, Rejo Agung, Kec. Sumberwringin, Kabupaten Bondowoso Bondowoso"
Wisata Bukit Luwih,-7.8379987651532,113.93496206731,"Kec. Tapen, Kabupaten Bondowoso Bondowoso"
Wisata Desa Agrapana,-7.8980484342674,113.89488748451,"Sumberkalong, Kec. Wonosari, Kabupaten Bondowoso Bondowoso"
Wisata Desa Kave Melok,-8.0334839496888,113.8326418,Kabupaten Bondowoso Bondowoso
Sky Garden Wonoboyo,-7.7948710895003,113.87618532313,"Wonoboyo, Kec. Klabang, Kabupaten Bondowoso Bondowoso"
Wisata Rumah Selfie Penambangan,-7.9184703183061,113.79394503675,"Penambangan, Kec. Curah Dami, Kabupaten Bondowoso Bondowoso"
Batik Sumbersari / The Waroeng,-8.0324892934782,113.77886248081,"Sumbersari, Maesan, Pasar, Sumbersari, Kec. Maesan, Kabupaten Bondowoso Bondowoso"
Goa Bhuto Sumber Wringin,-7.9799043811976,113.99439397171,Kabupaten Bondowoso Bondowoso
Makam Ki Ronggo,-7.8993056807637,113.82809268081,"Makam R. Bagus Assrakertonegoro, Jl. Mandiro Sekarputih, Purnama, Sekarputih, Kec. Tegalampel, Kabupaten Bondowoso Bondowoso"
Makam Kiai Mas Prajekan,-7.7902163557006,113.98223810081,Kabupaten Bondowoso Bondowoso
Makam Mbah Singo,-7.8471716944665,113.95931515985,Kabupaten Bondowoso Bondowoso
Museum Kereta Api Bondowoso,-7.7691507886638,113.8190525592,"Kademangan, Kec. Bondowoso, Kabupaten Bondowoso Bondowoso"
Padepokan Seni Gema Buana,-7.8006266202032,113.97944304068,"Seraten I, Prajekan Kidul, Kec. Prajekan, Kabupaten Bondowoso Bondowoso"
Desa Wisata Organik Lombok Kulon,-7.9417120040807,113.89146551875,"Krajan, Lombok Kulon, Kec. Wonosari, Kabupaten Bondowoso Bondowoso"
Desa Wisata Tirta Agung,-7.9787998886894,113.98341898513,"Sukosari Kidul, Kec. Sumberwringin, Kabupaten Bondowoso Bondowoso"
Desa Wisata Penambangan Kampung Indian,-7.918416241914,113.79394796269,"Penambangan, Kec. Curah Dami, Kabupaten Bondowoso Bondowoso"
Desa Wisata Kreatif Nangkaan,-7.9293336782699,113.80442773147,Kabupaten Bondowoso Bondowoso
Lampata Patek Desa Walidono,-7.7906173695175,113.96188870501,"Walidono, Kec. Prajekan, Kabupaten Bondowoso Bondowoso"
Teduh Glamping,-7.9821303152595,113.99742005644,"Sumberwringin, Kec. Sumberwringin, Kabupaten Bondowoso Bondowoso"
Desa Ramban Kulon,-7.7776600506397,114.01781152499,"Jl. Cermee No.4, Krajan II, Ramban Kulon, Kec. Cermee, Kabupaten Bondowoso Bondowoso"
Desa Pekauman,-8.0006223329425,113.79551599615,"Krajan I, Pekauman, Kec. Grujugan, Kabupaten Bondowoso Bondowoso"
Air Panas Kepuh,-5.7651366874542,112.72290983622,Desa Kepuhlegundi Kecamatan Tambak Pulau Bawean Gresik
Air Panas Sawahmulya,-5.8432100866566,112.66236110852,Dusun Kebundaya Desa Sawahmulya Kecamatan Sangkapura Bawean Gresik
Air Panas Sungarujing,-5.852638501892,112.68109932615,Dusun Taubat Desa Sungairujing Kecamatan Sangkapura Gresik
Air Terjun Kuduk-Kuduk,-5.8163432555628,112.65106221271,Desa Patar Selamat Kecamatan Sangkapura Bawean Gresik
Air Terjun Laccar,-5.8070341268386,112.69295073888,Desa Kebun Teluk Dalam Kecamatan Sangkapura Bawean Gresik
Air Terjun Teluk Jati Lawang,-5.7773435629286,112.59552485962,Desa Teluk Jati Dawang Kecamatan Sangkapura Bawean Gresik
Bukit Surowiti,-6.9356714209158,112.46463762235,Desa Surowiti Kecamatan Panceng Gresik Gresik
Danau Kastoba,-5.7712561570273,112.67174735001,Desa Paromaan Kecamatan Sangkapura Bawean Gresik
Mangrove Hijau Daun,-5.8467835442309,112.70663739926,Desa Sidogedungbatu Kecamatan Sangkapura Bawean Gresik
Muara Bengawan Solo,-6.8898591668638,112.60894781775,Kabupaten Gresik Gresik
Pantai Delegan Wisid,-6.8921251984865,112.46599535832,Desa Dalegan Kecamatan Panceng Gresik Gresik
Pantai Kerong Mambhul,-5.7887164026583,112.74098195226,Kabupaten Gresik Gresik
Pantai Labuhan,-5.7305960684392,112.67539035075,Desa Tanjung Ori Kecamatan Tambak Bawean Gresik
Pantai Mayang Kara,-5.7361914402794,112.7182546713,Desa Kepuhteluk Kecamatan Tambak Bawean Gresik
Pantai Ria,-5.7953675346655,112.58470210493,Desa Dekatagung Kecamatan Sangkapura Bawean Gresik
Pantai Terusan (Wisata Bahari Selayar),-5.8570570635995,112.68568050946,"Dusun Taubat, Kecamatan Sangkapura, Bawean Gresik"
Pasir Putih Sukakoneng,-5.7489958294514,112.61573950613,Desa Sukaoneng Kecamatan tambak Bawean Gresik
Pulau Cina,-5.7745028685137,112.58622388889,Desa Teluk Jatidawang Kecamatan Tambak Bawean Gresik
Pulau Gili,-5.8041671301459,112.77082028173,Desa Sidogedungbatu Kecamatan Sangkapura Bawean Gresik
Pulau Gili Barat,-5.806887634396,112.57595903559,Desa Dekatagung Kecamatan Sangkapura Bawean Gresik
Pulau Noko Selayar,-5.8712411845391,112.70597058882,Desa Sungairujing Kecamatan Sangkapura Bawean Gresik
Pulau Noko Gili,-5.811865964189,112.76842853627,Desa Sungairujing Kecamatan Sangkapura Bawean Gresik
Pulau Selayar,-5.8630212409995,112.68710390414,"Dusun Taubat, Kecamatan Sangkapura, Bawean Gresik"
Tanjung Geen,-5.8441755732329,112.5774049709,Desa Kumelasa Kecamatan Sangkapura Bawean Gresik
Wisata Alam Gosari,-6.9356711805511,112.50718036603,Desa Gosari Kecamatan Ujungpangkah Gresik Gresik
Wisata Banyubiru Lowayu,-6.9798119003672,112.41758330988,Desa Lowayu Kecamatan Dukun Gresik Gresik
Wisata Sambipondok,-6.9731253976112,112.52586068896,Desa Sambipondok Sidayu Gresik Gresik
Wisata Selo Tirto Giri,-6.9494846916588,112.50649632777,Desa Sekapuk Kecamatan Ujungpangkah Gresik Gresik
Edu Wisata Lontar Sewu,-7.2387789387735,112.58322523926,"Desa Hendrosari, Kecamatan Menganti Gresik Gresik"
Penangkaran Rusa,-5.8029049802642,112.61137066189,Desa Pudakit Timur Kecamatan Sangkapura Bawean Gresik
Wisata Pendidikan Perpus. Daerah,-7.1616904031072,112.65353501342,Jl. Jaksa Agung Suprapto 20 Gresik Gresik
Kampung Kemasan,-7.1531545610101,112.65603008874,Jl. Nyai Ageng Arem - Arem Gg. III Kebungson Gresik Gresik
Kuburan Panjang,-7.1199433679476,112.59538388474,Jl. Siti Fatimah Binti Maimun Desa Leran Kecamatan Manyar Gresik Gresik
Makam Cokrokusumo,-5.8453940482137,112.65287518714,Dusun Nagasari Desa Sungaiteluk Kecamatan Sangkapura Bawean Gresik
Makam  Dewi Sekardadu,-7.1826036173001,112.63663209562,Jl. Dewi Sekardadu Desa Sidomoro Kecamatan Kebomas Gresik Gresik
Makam Jujuk Campa,-5.8289096900827,112.59479155313,Desa Kumalasa Kecamatan Sangkapura Bawean Gresik
Makam Jujuk Tampo,-5.8076909300124,112.6122611608,Desa Pudakit Barat Kecamatan Sangkapura Bawean Gresik
Makam M.M. Ibrahim,-7.1600889359081,112.65651263627,Jl. Malik Ibrahim Gapurosukolilo Gresik Gresik
Makam Mulana Umar Mas'ud,-5.8453083157271,112.65787756221,Komplek Masjid Jami&amp;#039; Desa Kotakusuma Kecamatan Sangkapura Bawean Gresik
Makam Nyai Ageng Pinatih,-7.1536636643015,112.65799703198,Jl. KH Kholil Desa Kebungson Gresik Gresik
Makam Pangeran Purbonegoro,-5.8408977404016,112.65942746466,Dusun Gunung Malokok Desa Sawahmulya Kecamatan Sangkapura Bawean Gresik
Makam Pusponegoro,-7.1602409456324,112.65614277921,Komplek Makam Maulana Malik Ibrahim Jl. Malik Ibrahim Gapurosukolilo Gresik Gresik
Makam Raden Santri,-7.1556996882431,112.65622578351,Jl. Raden Santri Desa Pakelingan Gresik Gresik
Makam Siti Fatimah,-7.1199433679476,112.59538388474,Jl. Siti Fatimah Binti Maimun Desa Leran Kecamatan Manyar Gresik Gresik
Makam Sunan Giri,-7.1689799320484,112.6311857928,Jl. Sunan Giri Desa Giri Gresik Gresik
Makam Sunan Prapen,-7.167433398886,112.62859014921,Jl. Sunan Prapen Desa Klangonan Kecamatan Kebomas Gresik Gresik
Makam Waliyah Zaenab,-5.7358744270633,112.69922640257,"Desa Diponggo, Tambak Kecamatan Sangkapura Bawean Gresik"
Museum Sunan Giri,-7.1702459330342,112.63058657729,Jl. Sunan Giri Desa Giri Kecamatan Kebomas Gresik Gresik
Putri Cempo,-7.1752763365914,112.64117932877,Desa Gending Kecamatan Kebomas Gresik Gresik
Situs Giri Kedaton,-7.1727689199618,112.63295274883,Jl. Sunan Giri Desa Giri XIII Desa Sidomukti Kecamatan Kebomas Gresik
Wisata Pasir Putih Dalegan,-6.8921251984865,112.46599535832,Desa Dalegan Kecamatan Panceng Kabupaten Gresik Gresik
Desa Wisata Doudo,-6.9554686332707,112.49847528989,Desa Doudo Kecamatan Panceng Kabupaten Gresik Gresik
Desa Wisata Sekapuk,-6.9491686754561,112.50649855318,Desa Sekapuk Kecamatan Ujungpangkah Kabupaten Gresik Gresik
Desa Wisata Gosari,-6.9413351992784,112.50961619446,Desa Gosari Kecamatan Ujungpangkah Gresik Gresik
Desa Wisata Hendrosari,-7.2330677252546,112.58563622778,"Desa Hendrosari, Kecamatan Menganti Gresik Gresik"
Desa Wisata Sidokumpul,-7.1742113833873,112.64466054626,"Jl. Kramat Langon  Gg. IV B, Sumberrejo, Sidokumpul, Kec. Gresik Gresik"
Desa Wisata Giri,-7.172841203849,112.62258350162,"Jetak, Giri, Kec. Gresik, Kabupaten Gresik Gresik"
Desa Wisata Manyarsidomukti,-7.1052396050237,112.60692868028,"Desa Manyarsidomukti, Kecamatan Manyar, Kabupaten Gresik Gresik"
Desa Wisata Kemangi,-7.0206368540196,112.57188931358,"Kemangi, Kec. Bungah, Kabupaten Gresik Gresik"
Desa Wisata Surowiti,-6.9358611298137,112.47401461697,Desa Surowiti Kecamatan Panceng Gresik Gresik
Desa Wisata Pangkahwetan,-6.9145228326957,112.55901814431,Kabupaten Gresik Gresik
Desa Wisata Pangkahkulon,-6.9188022484985,112.54635134688,Kabupaten Gresik Gresik
Desa Wisata Sambi Pondok,-6.9731253976112,112.52586068896,Desa Sambipondok Sidayu Gresik Gresik
Air Terjun Tancak,-8.0653213019281,113.61857160055,"Area Pegunungan Argop, Suci, Kec. Panti, Kabupaten Jember, Jawa Timur 68153 Jember"
Pantai Nanggelan,-8.4550537,113.63451,"Jalan Cangak Indah, Curahnongko, Tempurejo, Area Hutan, Curahnongko, Kec. Tempurejo, Kabupaten Jember, Jawa Timur 68173 Jember"
Pantai Tanjung Papuma,-8.4310054,113.5559703,Ds. Lojejer Kec. Wuluhan 40 Km arah selatan kota Jember Jember
Pantai Watu Ulo,-8.4252862,113.5567471,"Sumberejo, Kec. Ambulu, Kabupaten Jember, Jawa Timur 68172 Jember"
Kampung Wisata  Belajar Tanoker,-8.1381871,113.8659127,"Jl. Bungur No. 73 Timur, Jl. Simpang Tiga, Pasar, Ledokombo, Kec. Ledokombo, Kabupaten Jember, Jawa Timur 68196 Jember"
Pemandian Patemon,-8.1486338,113.4590323,"Krajan II, Patemon, Kec. Tanggul, Kabupaten Jember, Jawa Timur 68155 Jember"
Wisata Rembangan,-8.0785442,113.6863468,"Jl. Rembangan, Darungan, Kemuning Lor, Kec. Arjasa, Kabupaten Jember, Jawa Timur 68191 Jember"
Tiara Jember Park Waterboom,-8.1662939,113.7281353,"Jalan Kaliurang, Sumbersari, Krajan Barat, Sumbersari, Kabupaten Jember, Jawa Timur 68124 Jember"
Candi Rimbi,-7.6737757433587,112.34315970173,"Ngrimbi, Kec. Bareng, Kabupaten Jombang Jombang"
Bukit Dhoho Indah,-7.7715472,111.93873611111,Desa Tiron Kec. Banyakan Kabupaten Kediri Kediri
Gunung Kelud,-7.9264472,112.23570277778,Desa Sugih Waras Kec. Ngancar Kabupaten Kediri Kediri
Wana Wisata Sumber Podang,-7.8245417,111.88666944444,Desa Joho Kec. Semen Kabupaten Kediri Kediri
Gumul Paradise Island,-7.8116806,112.06116944444,"Jl. Simpang Lima Gumul Barat Desa Sumberejo, Kec. Ngasem Kabupaten Kediri Kediri"
Gronjong Wariti,-7.7270039,112.1407774,Desa Mejono Kecamatan Plemahan Kabupaten Kediri Kediri
Indian Village,-7.9462444,112.21686944444,Desa Sempu Kec. Ngancar Kabupaten Kediri Kediri
Kampung Anggrek SSP,-7.9431806,112.22328333333,Desa Sempu Kec. Ngancar Kabupaten Kediri Kediri
Kawasan Sri Aji Joyoboyo,-7.6738667,112.08498888889,"Desa Menang, Kec. Pagu Kabupaten Kediri Kediri"
Kawasan Wisata Besuki,-7.8628,111.85648888889,Desa Jugo Kec. Mojo Kabupaten Kediri Kediri
Kawasan Gereja Puh Sarang,-7.8337278,111.94962222222,Desa Puhsarang Kec. Semen Kabupaten Kediri Kediri
Monumen Simpang Lima Gumul,-7.8159056,112.06226388889,Kec. Ngasem Kabupaten Kediri Kediri
Kawasan Wisata Surowono,-7.7416778,112.21604722222,Desa Canggu Kec. Badas Kabupaten Kediri Kediri
Korea Fantasy,-7.9637278,112.18833333333,"Desa Manggis, Kec. Ngancar Kabupaten Kediri Kediri"
Melta waterland Kediri,-7.9683667,112.07991388889,Desa Dawung Kec. Ringinrejo Kabupaten Kediri Kediri
Taman Ria Corah,-7.7766194,112.20096944444,Jl. Letjen Sutoyo Pare Kabupaten Kediri Kediri
Wisata Alaska Alas Karetan,-7.8912167,112.14766944444,Desa Tempurejo Kec. Wates Kabupaten Kediri Kediri
Arca Totok Kerot,-7.7979639,112.07026388889,Desa Bulupasar Kec. Pagu Kabupaten Kediri Kediri
Candi Tegowangi,-7.7346972,112.16124166667,Desa Tegowangi Kec. Plemahan Kabupaten Kediri Kediri
Ndalem Pojok Situs Bungkarno Kediri,-7.9274528,112.09135833333,Desa Pojok Kec. Wates Kabupaten Kediri Kediri
Prasasti Tangkilan,-7.739825,112.11813888889,Desa Padangan Kec. Tangkilan Kabupaten Kediri Kediri
Situs Artefak Brumbung,-7.7992417,112.28839722222,Desa Brumbung Kec. Kepung Kabupaten Kediri Kediri
Situs Adan- Adan,-7.7696889,112.117125,Desa Adan-Adan Kec. Gurah Kabupaten Kediri Kediri
Situs Calon Arang,-7.7969806,112.09037777778,"Desa Sukorejo, Kec. Gurah Kabupaten Kediri Kediri"
Situs Candi Dorok,-7.8178944,112.21851111111,Desa Manggis Kec. Puncu Kabupaten Kediri Kediri
Situs Candi Surowono,-7.7462333,112.21811111111,Desa Canggu Kec. Badas Kabupaten Kediri Kediri
Situs Gambyok,-7.7377083,111.99051388889,Desa Gambyok Kec. Grogol Kabupaten Kediri Kediri
Situs Namba'an,-7.7874361,112.04467222222,Desa Nambaan Kec. Ngasem Kabupaten Kediri Kediri
Situs Prasasti Pohsarang,-7.8342778,111.96021111111,Desa Puhsarang Kec. Semen Kabupaten Kediri Kediri
Situs Semen,-7.7683194,112.07065277778,Desa Semen Kec. Pagu Kabupaten Kediri Kediri
Situs Tondowongso,-7.7903722,112.14250555556,Desa Gayam Kec. Gurah Kabupaten Kediri Kediri
Situs Tunglur,-7.7155917,112.20145555556,Desa Tunglur Kec. Badas Kabupaten Kediri Kediri
Desa Wisata Jambu,-7.7340778,112.14778611111,"Desa Jambu, Kec. Kayen Kidul Kabupaten Kediri Kediri"
Agrowisata Besur,-7.0321719053598,112.27484108156,desa sekaran kecamatan sekaran kabupaten lamongan Lamongan
Pantai Kutang,-6.8815312896673,112.21200369351,desa labuhan kecamatan brondong Kabupaten Lamongan Lamongan
pemandian air panas Brumbun,-6.8991993004442,112.37068808689,desa kranji paciran Kabupaten Lamongan Lamongan
Obyek Wisata Trinil,-6.9305938505198,112.24103632653,Kabupaten Lamongan Lamongan
Simbar Semeru,-8.1738938711599,112.97589919423,"Desa Oro Oro Ombo, Kec. Pronojiwo, Kabupaten Lumajang Lumajang"
Air Terjun Kapas Biru,-8.2202922485173,112.94025949871,"Jl. A. Yani Nomor 02 RT 04 RW 03 Desa Pronojiwo, Kec. Pronojiwo Lumajang"
Air Terjun Trap Sewu,-8.103352646037,113.13006510419,"Jalan Trap Sewu, Dusun Randuagung, Desa Bodang, Kec. Padang, Kabupaten Lumajang Lumajang"
Air Terjun Cuban Telu,-8.0986365778163,113.06642152229,"Dusun Carang Kuning RT 01 RW 05 Desa Jambekumbu, Kec. Pasrujambe Lumajang"
Coban Sriti,-8.214073098927,112.94649441128,"Dusun Jogokereng, RT.006/RW.002, Desa Tamanayu, Kec. Pronojiwo, Kabupaten Lumajang Lumajang"
Taman Bunga You &amp; I Sakura,-8.1391680491271,113.01118392707,"Dsn. Umbulrejo RT 14 RW 04 Desa Sumbermujur, Kec. Candipuro Lumajang"
Makam Mbah Drajid,-8.2799935857918,113.2807869794,"Dusun Talsewu, Desa Wotgalih Kec. Yosowilangun Lumajang"
Pemandian Alam Semeru,-8.1963021885724,112.95671491902,"Dusun Supit, Desa Pronojiwo Kecamatan Pronijiwo Lumajang"
Wisata Alam Hutan Bambu,-8.1470587501139,113.01596164006,"Jl. Kalpataru, Dusun Umbulsari, Desa Sumbermujur, Kec. Candipuro Lumajang"
Kawasan Pantai Dampar Indah,-8.2892743087375,113.07260297261,"Jalan Gondoruso, Kalibendo, Pasirian, Kabupaten Lumajang, Jawa Timur Lumajang"
Kawasan Pendakian Gunung Semeru,-8.01024700102,112.94313043356,"Dsn Besaran  RT 01 RW 01 Desa Ranupani, Kec. Senduro Lumajang"
Candi Gedong Putri,-8.1714300599638,113.08223916231,"Dusun Klopo Sawit, Desa Sumberejo, Kecamatan Candipuro Lumajang"
Sumber Mrutu,-8.0665747803013,113.22626424103,Kabupaten Lumajang Lumajang
Pantai Watu Pecak,-8.2887414802505,113.14017530095,"Dusun Krajan Dua, Desa Selok Awar Awar, Kec. Pasirian Lumajang"
PantaiÂ Mbah Drajid Wotgalih,-8.2941483619644,113.27469935337,"Desa Wotgalih, Kec. Yosowilangun Lumajang"
Sumber Takir Park,-8.1533044513994,113.15425787154,"Dusun Krajan Barat, Desa Jokarto, Kecamatan Tempeh Kabupaten Lumajang, Jawa Timur Lumajang"
Puncak B29 Argosari,-7.9884093751614,113.01827323017,"RT 01 RW 03 Desa Argosari, Kec. Senduro Lumajang"
Sunset Ponit Puncak Sriti,-8.2161818318665,112.94939350603,"Dusun Jogokereng, Desa Tamanayu, Kec. Pronojiwo, Kabupaten Lumajang. Lumajang"
Ranupani,-8.0115643943009,112.94642458258,"Dusun Besaran RT 01 RW 01 Desa Ranupani, Kec. Ranupani Lumajang"
Ranu Klakah,-7.9866157853791,113.26865755916,"Desa Tegalrandu, Kec. Klakah Lumajang"
Panorama Air Terjun Tumpak Sewu,-8.2301283553416,112.91661996432,"Jl. Raya Sidomulyo, Dusun Besukcukit, Desa Sidomulyo, Kec. Pronojiwo Lumajang"
PTPN XII Kebun Kertowono,-8.013969671854,113.13244342804,"Dusun Sidorukun, Desa Gucialit, Kec. Gucialit Lumajang"
Kolam Renang Veteran,-8.1185829813356,113.22033253849,"Jl. Veteran No.93, Desa Karangsari, Kec. Sukodono Lumajang"
Pure Agung Amertha Buana,-8.0546134639465,113.1216678095,"Dusun Sumberagung Desa Pakel, Kec. Yosowilangun Lumajang"
Pemandian Alam Tirtosari View,-8.1390091504085,113.04460819748,"Dusun Sumbersari, Desa Penanggal, Kec. Candipuro Lumajang"
Pemandian Joyokarto,-8.1541128620169,113.15781523565,"Dusun Krajan Timur, Desa Jokarto, Kec. Tempeh Lumajang"
Pemandian Alam Selokambang,-8.1415745227646,113.17360349314,"Desa Purwosono, Kec. Sumbersuko Lumajang"
Pemandian Tirtowono,-8.2044470665763,113.10444976395,"Dusun Kebonsari, Desa Jarit, Kec. Candipuro Lumajang"
Taman Wisata Tambuh Raya Idaman,-8.2232393980037,113.1164312818,"Dusun Kedung Pangkis, Desa Pasirian, Kec. Pasirian, Kabupaten Lumajang Lumajang"
Bumi Perkemahan Glagah Arum,-8.0542870556743,113.06309020103,"Dusun Glagah Arum, Desa Kandangtepus, Kec. Senduro Lumajang"
Water Park,-8.075484705249,113.23513765122,Kawasan Wonorejo Terpadu (KWT) Desa Wonorejo Kec. Kedungjajang Lumajang
Dalan Tegalan Destinasi Wisata dan Budaya,-8.1554381485406,113.23812572038,"Dusun Pasinan, Desa Karangbendo, Kec. Tekung Lumajang"
Candi Randuagung,-8.0762876120933,113.29808059161,"Dusun Krajan Satu, Desa Randuagung, Kec. Randuagung Lumajang"
Museum Daerah Kabupaten Lumajang,-8.0752658660954,113.23600512736,Kawasan Wonorejo Terpadu Lumajang
Pura Mandara Giri Semeru Agung,-8.0916860189032,113.08802220905,"Jl. Serma Dohir, Sumberagung, Kec. Senduro Lumajang"
Desa Kunir Kidul,-8.2197095380777,113.21235312101,"Jl. Kopral Sohin No.5-17, Desa Kunir Kidul, Kec. Kunir Lumajang"
Desa Argosari,-7.9633132307978,113.01919738596,"Jl. Bromo, RT.03/RW.03, Desa Argosari, Kec. Senduro, Kabupaten Lumajang Lumajang"
Desa Banjarwaru,-8.11337941818,113.19538228874,Kabupaten Lumajang Lumajang
Desa Kandangtepus,-8.0699291740305,113.07210503786,"Dusun Wonorejo, Desa Kandangtepus, Kec. Senduro Lumajang"
View Point Bantengan,-7.9903180030482,112.9412083552,"Desa Ranupani, Kec. Senduro Lumajang"
Desa Selok Awar-Awar,-8.2424859516339,113.14752462101,"Dusun Krajan Satu, Desa Selok Awar Awar, Kec. Pasirian Lumajang"
Desa Sumbermujur,-8.1377644966809,113.02187176333,"Jl. Pancasila No.3, Banjarrejo, Desa Sumbermujur, Kec. Candipuro, Kabupaten Lumajang, Jawa Timur 67373 Lumajang"
Desa Burno,-8.0839637358442,113.07042628595,"Dusun Krajan Satu, Desa Burno, Kec. Senduro, Kabupaten Lumajan Lumajang"
Desa Ranupani,-8.0109428826794,112.94529285916,"Dsn. Besaran RT 1 RW 1 Desa Ranupani, Kecamatan Senduro Lumajang"
Desa Gucialit,-8.0527446620125,113.14388407868,"Dusun Sidomakmur, Kec. Gucialit, Kabupaten Lumajang, Jawa Timur 67353 Lumajang"
Sriti Camp Ground,-8.2125439929958,112.94901544439,"Dusun Jogokereng, Desa Tamanayu, Kec. Pronojiwo Lumajang"
Desa Senduro,-8.1009376927525,113.09690533989,"Jl. PB Sudirman RT 01 RW 17 No 148, Desa Senduro, Kec. Senduro Lumajang"
Ranu Regulo,-8.0136433138987,112.95068464979,"Desa Ranupani, Kec. Senduro Lumajang"
Desa Sidomulyo,-8.2301037425275,112.92632609553,"Jl. Raya Dampit-Lumajang No.54, Dusun Krajan, Desa Sidomulyo, Kec. Pronojiwo Lumajang"
Desa Ranu Bedali,-7.9527203604722,113.26545300828,"Gn. Cilik, Desa Ranubedali, Kec. Ranuyoso Lumajang"
Desa Pagowan,-8.1299148583969,113.12021598627,"Desa Pagowan, Kec. Pasrujambe, Kabupaten Lumajang Lumajang"
Desa Condro,-8.2255257172253,113.13121874132,"Jl. PB Sudirman No.56, Dusun Kebonan, Desa Condro, Lumajang, Kabupaten Lumajang Lumajang"
Desa Petahunan,-8.1384738139258,113.18053976333,"Dusun Sanjaran, Desa Petahunan, Kec. Sumbersuko Lumajang"
Desa Wotgalih,-8.2724687853371,113.2811953382,"Dusun Krajan, Desa Wotgalih, Kec. Yosowilangun Lumajang"
Desa Pundungsari,-8.2725351337663,112.97272052101,"Dsn. Krajan, Desa Pundungsari, Kec. Tempursari Lumajang"
Kampung Wisata Ditotrunan,-8.1373557088687,113.22218913937,Jl. Kapten Suwandak Gg X Orange Indah No. 7 Kelurahan Ditotrunan Kecamatan Lumajang Lumajang
Desa Oro Oro Ombo,-8.2043568048271,112.98936695793,"Jl. Raya Dampit-Lumajang No.1945, Dusun Sumber Bulus, Desa Oro Oro Ombo, Kec. Pronojiwo Lumajang"
Perum Perhutani,-7.6274516363789,111.52906796422,"Jl. Rimba Mulya No. 6, Kartoharjo, Kec. Kartoharjo, Kota Madiun Madiun"
ARBORETUM,-7.6268777041582,111.52822775615,"Jl. Rimbakaya, Kartoharjo, Kec. Manguharjo, Kota Madiun Madiun"
Bluder Cokro,-7.6315988403789,111.50893072389,"Jl. Hayam Wuruk No. 51-53, Manguharjo, Kec. Manguharjo, Kota Madiun Madiun"
INKA,-7.6163733701786,111.52421179138,"Jl. Yos Sudarso No. 71, Madiun  Lor, Kec. Manguharjo, Kota Madiun Madiun"
Taman Olahraga Lapangan Gulun Madiun,-7.6344617335211,111.52688191417,"Jl. Kapten Saputro No. 20, Kejuron, Kec. Taman, Kota Madiun Madiun"
Pahlawan Street Center dan Pendistrian Balai Kota Madiun,-7.6250590003991,111.52025413285,"Jl. Pahlawan No. 31, Kartoharjo, Kec. kartoharjo, Kota Madiun Madiun"
Suncity Waterpark,-7.6229747377109,111.53492005069,"Jl. S. Parman No. 2, Sukosari, Kec. Kartoharjo, Kota Madiun Madiun"
Stadion Wilis / Gor Wilis,-7.6314417424987,111.52966975937,"Jl. Mastrip, Klegen, Kec. Kartoharjo, Kota Madiun Madiun"
Taman Lalu Lintas Bantaran Kali Madiun,-7.6237359832676,111.51434039156,"JL. A. Yani, Pangongangan, Kec. Manguharjo, Kota Madiun Madiun"
Taman Wisata Trembesi,-7.6270393230147,111.52745490257,"Jl. Rimbakaya, Kartoharjo, Kec. Kartoharjo, Kota Madiun Madiun"
THR Retno Dumilah Park,-7.6278523185201,111.53896291264,"JL. Slamet Riyadi No. 99, Klegen, Kota Madiun Madiun"
Makam Kuncen,-7.656507801947,111.51430522634,"Kel. Kuncen, Kota Madiun Madiun"
Masjid Kuno Kuncen,-7.6565556512742,111.51421922426,"Kel. Kuncen, Kota Madiun Madiun"
Masjid Kuno Taman,-7.6404591172128,111.52325090585,"Jl. Asahan, Taman, Kec. Taman, Kota Madiun Madiun"
Makam Kuno Taman,-7.6401397433066,111.52263274618,"Jl. Asahan, Taman, Kec. Taman Kota Madiun Madiun"
Air Terjun Kerto Embo,-7.7780143035506,111.70021989361,"Sumberagung, Kec. Kare, Kabupaten Madiun, Jawa Timur 63182 Madiun"
Waduk Bening Widas,-7.5445706,111.7954125,"Jl. Wisata Waduk Bening, Setren, Pajaran, Kec. Saradan, Kabupaten Madiun, Jawa Timur 63155 Madiun"
Waduk Saradan,-7.5502563,111.7409674,Kabupaten Madiun Madiun
Wana Wisata Grape,-7.6997693,111.6414194,"Kec. Kare, Kabupaten Madiun, Jawa Timur 63182 Madiun"
Watu Rumpuk,-7.77065,111.64404,"Morosowo, Mendak, Kec. Dagangan, Kabupaten Madiun, Jawa Timur 63172 Madiun"
Papringan Kali Kerto,-7.7284903,111.508959,Kabupaten Madiun Madiun
Kampung Ceria Pule,-7.5443383,111.5120994,"Desa, Pule, Kec. Sawahan, Kabupaten Madiun, Jawa Timur 63162 Madiun"
Lembah Wilis,-7.700786,111.6262003,"Jl. Raya Kresek, Brojo, Kresek, Kec. Wungu, Kabupaten Madiun, Jawa Timur 63181 Madiun"
Madiun Umbul Square,-7.7838113451729,111.52344394994,"Glonggong, Kec. Dolopo, Kabupaten Madiun, Jawa Timur 63174 Madiun"
Pancur Pitu,-7.4776207,111.7723893,"Piji, Sumberbendo, Kec. Saradan, Kabupaten Madiun, Jawa Timur 63155 Madiun"
Pasar Pundensari,-7.5769933,111.5396176,"Jl. Golek, Pelempayung, Gunungsari, Kec. Madiun, Kabupaten Madiun, Jawa Timur 63151 Madiun"
Randu Dampit,-7.7121668,111.7375281,Kabupaten Madiun Madiun
Selo Gedong,-7.7471067,111.6623257,"Area Kebun/Hutan, Bodag, Kec. Kare, Kabupaten Madiun, Jawa Timur 63182 Madiun"
Taman Gligi,-7.7008957,111.5482605,Kabupaten Madiun Madiun
Tambak lare,-7.7457546,111.6954771,"Branjang, Kare, Kec. Kare, Kabupaten Madiun, Jawa Timur 63182 Madiun"
Taman Raden Sekar Park,-7.7972182,111.5520061,"Sukorejo, Kradinan, Kec. Dolopo, Kabupaten Madiun, Jawa Timur 63174 Madiun"
Waterpark Batok,-7.70206,111.7170444,"Dusun Kambatan, RT.19/RW.3, Batok, Kec. Gemarang, Kabupaten Madiun, Jawa Timur 63156 Madiun"
Wisata Nongko Ijo,-7.7343577572342,111.68257400712,"Kare, Kec. Kare, Kabupaten Madiun, Jawa Timur 63182 Madiun"
Peken Lawas Candimulyo,-7.761027,111.547363,"Sidowayah, Candimulyo, Kec. Dolopo, Kabupaten Madiun, Jawa Timur 63174 Madiun"
Kresek,-7.7050773,111.6287947,"Sewu, Kresek, Kec. Wungu, Kabupaten Madiun, Jawa Timur 63181 Madiun"
Makam Kuncen Caruban,-7.5676077,111.6689869,"Sawahan, Kuncen, Caruban, Kabupaten Madiun, Jawa Timur 63153 Madiun"
Situs Wonorejo,-7.5811733,111.6769088,"Jl. Candi RT. 9 RW. 1, Santan, Wonorejo, Mejayan, Wonorejo, Kec. Mejayan, Kabupaten Madiun, Jawa Timur 63153 Madiun"
Desa wisata Brumbun,-7.694355,111.6058712,"Brumbun, Kec. Wungu, Kabupaten Madiun, Jawa Timur 63181 Madiun"
Desa Mendak,-7.7672751,111.6164238,Kabupaten Madiun Madiun
Desa Kepel,-7.7480164,111.6564268,Kabupaten Madiun Madiun
Desa Durenan,-7.716221,111.7055393,Kabupaten Madiun Madiun
Dusun Seweru,-7.7512438,111.623215,Kabupaten Madiun Madiun
Desa Gunungsari,-8.0416661,112.6882072,Kabupaten Madiun Madiun
Desa Pule,-7.5442148,111.5077162,Kabupaten Madiun Madiun
Desa Candimulyo,-7.7584677,111.5333523,Kabupaten Madiun Madiun
Desa Kresek,-7.7032531,111.6050549,Kabupaten Madiun Madiun
Desa Nglambangan,-7.6115377,111.5766733,Kabupaten Madiun Madiun
Desa Batok,-7.6978477,111.7097123,Kabupaten Madiun Madiun
Desa Segulung,-7.7489285,111.5875288,Kabupaten Madiun Madiun
Desa Singgahan,-7.728485,111.5067703,Kabupaten Madiun Madiun
Desa Tambakmas,-7.7716792,111.4532497,Kabupaten Madiun Madiun
Desa Kaliabu,-7.5733986,111.6471302,Kabupaten Madiun Madiun
Air Terjun Waton Jamas Ndak Tuo,-7.6874475865288,111.21219456276,Kabupaten Magetan Magetan
Dam Jati,-7.6765905062261,111.26917306828,Kabupaten Magetan Magetan
Telaga Sarangan,-7.6722819578257,111.21759797622,Kabupaten Magetan Magetan
Telaga Wahyu,-7.6741314234213,111.23632301514,Kabupaten Magetan Magetan
Wisata Sumber Dodol,-7.628835360206,111.28153169934,Kabupaten Magetan Magetan
Buper Sarangan,-7.6773149324458,111.2140864245,Kabupaten Magetan Magetan
Kampung Batik Sidomukti,-7.6833035605331,111.27200786269,Kabupaten Magetan Magetan
Kampung Susu Singolangu,-7.663480898576,111.22737949325,Kabupaten Magetan Magetan
Kosala Tirta,-7.6095638980713,111.45592450112,Kabupaten Magetan Magetan
Lawu Green Forest,-7.6637066653028,111.21817126544,Kabupaten Magetan Magetan
Mbah Djoe Resort,-7.6702085713652,111.21296483661,Kabupaten Magetan Magetan
Magetan Green Garden,-7.6037917335752,111.3511347501,Kabupaten Magetan Magetan
Magetan Park,-7.6509435754279,111.33722057049,Kabupaten Magetan Magetan
Mojosemi Forest Park,-7.6635909433068,111.21695816256,Kabupaten Magetan Magetan
Omah Jowo,-7.6697577978307,111.21575652688,Kabupaten Magetan Magetan
Perkemahan Mojosemi,-7.6638456451944,111.216657743,Kabupaten Magetan Magetan
Randugede Hidden Paradise,-7.688603509627,111.29009204725,Kabupaten Magetan Magetan
Sendang Bening,-7.6935629913153,111.41988021138,"Jalan Desa, RT.09/RW.02, Kawedanan, Kec. Kawedanan, Kabupaten Magetan, Jawa Timur 6338 Magetan"
Taman Bunga Refugia,-7.6800213123113,111.25364250777,Kabupaten Magetan Magetan
Taman Geni Langit,-7.7095866901571,111.2168019509,Kabupaten Magetan Magetan
Taman Wisata Jabung,-7.6088735178474,111.27504960592,Kabupaten Magetan Magetan
Tirto Gumarang,-7.6656925210359,111.19059209801,Kabupaten Magetan Magetan
Candi Simbatan Wetan,-7.6913105625855,111.44166497054,Kabupaten Magetan Magetan
Desa Wisata Soco,-7.6488875,111.4458906,"Desa Soco, Kec. Bendo, Kabupaten Magetan, Jawa Timur 63384 Magetan"
Alun alun Kota Malang,-7.9827719011995,112.63078760675,"Jl. Merdeka Selatan, Kiduldalem, Kec. Klojen, Kota Malang, Jawa Timur 65119 Malang"
Alun alun Tugu Balaikota,-7.977151305042,112.63400088687,"Jl. Tugu, Kiduldalem, Kec. Klojen, Kota Malang, Jawa Timur 65111 Malang"
Club House Istana Dieng,-7.9772522427851,112.60123017322,"Perumahan Istana Dieng Jalan Istana Dieng Raya III, Bandulan, Kec. Sukun, Kota Malang, Jawa Timur 65146 Malang"
Fantasy Land Tlogomas,-7.9306588991844,112.60467887743,Jl. Baiduri pandan 17 malang Malang
Hawai Waterpark,-7.9230460610973,112.65708926675,Kota Malang Malang
Kampung Biru Arema,-7.9811250425993,112.63772843508,"Kiduldalem, Kec. Klojen, Kota Malang, Jawa Timur 65119 Malang"
Koridor Kajoetangan,-7.9791328661661,112.62947893372,Jalan Basuki Rahmat Kota Malang Malang
Kampung Budaya Polowijen,-7.9290431006708,112.64343884255,"Jl. Cakalang, RT.3/RW.2, Polowijen, Kec. Blimbing Kota Malang Malang"
Idjen Boulevard,-7.969724349767,112.62298789473,Jalan Ijen Kota Malang Malang
Kampung Keramik Dinoyo,-7.9415923978965,112.6116477798,Kota Malang Malang
Kampung Sanan Tempe,-7.9606386109279,112.64352128448,Kota Malang Malang
Kampung Terapi Hjau,-7.9931293260926,112.61976478245,Kota Malang Malang
Kampung Tridi,-7.9819849606636,112.63814937175,Kota Malang Malang
Wisata Gantangan Burung,-8.031614260697,112.62708649694,Jalan Lowokdoro Kota Malang Malang
Eco Club Citra Garden,-8.0090576755618,112.65838332224,"Jln. The Hill Boulevard, Perumahan CitraGarden City, Buring, Kedungkandang, Malang 65139 Malang"
Batik Soendari Malang,-7.9370820478774,112.62478550626,"Jl. soekarno Hatta PTP II Jl. Soekarno Hatta No.A2, Mojolangu, Kec. Lowokwaru, Kota Malang, Jawa Timur 65142 Malang"
Pasar Bunga dan Burung Splendid,-7.9777994306489,112.63122789626,"Jalan Brawijaya Kauman, Kec. Klojen, Kota Malang, Jawa Timur 65119 Malang"
Kampoeng Qur'an Wijaya Kusuma,-7.9798659883038,112.65016397994,"Jl. Kalimasada I, Polehan, Kec. Blimbing, Kota Malang Malang"
Trans Studio Mini Malang,-7.9563363171114,112.61778030136,Kota Malang Malang
Museum Brawijaya,-7.9720310766191,112.62088984251,Kota Malang Malang
Museum Empu Purwa,-7.940355213299,112.62085751415,"Perumahan Griya Santa, Jl. Soekarno - Hatta No.210 Blok B, Mojolangu, Lowokwaru Kota Malang Malang"
Kampung Karang Besuki,-7.9616541829274,112.60744158609,Kelurahan Karang Besuki Kota Malang Malang
Museum Musik Indonesia,-7.9879779154687,112.62664347137,Kota Malang Malang
Kampung Gribig Religius,-7.9812810844518,112.66558624047,Kota Malang Malang
Kampung Heritage Kajoetangan,-7.9787327089992,112.62940524275,Kota Malang Malang
Kampung Glintung Water Street,-7.9482437778126,112.64323454078,Kota Malang Malang
Koeboeran Londo,-7.9913745270039,112.61854761521,Kota Malang Malang
Kampung Satrio Turonggo Jati,-7.961716456024,112.63009865007,Kota Malang Malang
Kampung seribu Topeng,-8.0270739274077,112.67499705882,Kota Malang Malang
Agro Wisata Wonosari,-7.8202161987628,112.64226776858,"RT.04/RW.07, Bodean Putuk, Toyomarto, Kec. Singosari, Kabupaten Malang, Jawa Timur 65153 Malang"
Pantai Teluk Kletekan,-8.4163014192859,112.59167547938,"Area Gn., Sidurejo, Gedangan, Kabupaten Malang, Jawa Timur 65178 Malang"
Pemandian Banyu Biru/Sumber Biru,-7.9205444829638,112.64026400994,"Dusun Biru, Desa Gunungrejo, Kecamatan Singosari, Kabupaten Malang Malang"
Bumi Perkemahan Bedengan,-7.9394968094768,112.53046019742,"Jl. Raya Selokerto, Godehan, Selorejo, Kec. Dau, Kabupaten Malang, Jawa Timur 65151 Malang"
Budug Asu,-7.8066234093846,112.62357729772,"Desa Gunungrejo, Kecamatan Lawang, Kabupaten Malang Malang"
Umbulan Tanaka,-8.0847841449096,112.49811675784,"Arjomulyo, Bangelan, Kec. Wonosari, Kabupaten Malang, Jawa Timur 65164 Malang"
Coban Cinde,-7.9904524638563,112.84018975324,"Benjor, Kec. Tumpang, Kabupaten Malang, Jawa Timur 65156 Malang"
Coban Glothak,-7.9818615092779,112.52116669742,"Jalan Raya Coban Glothak, Area Hutan, Desa Dalisodo, Kecamatan Wagir, Kabupaten Malang, Jawa Timur 65158 Malang"
Coban Grojokan Sewu,-7.8662214903426,112.42393987925,"Dadapan Wetan, Bendosari, Kec. Pujon, Kabupaten Malang, Jawa Timur 65391 Malang"
Coban Jahe,-7.9692871997954,112.8033890787,"Jl. Begawan, Dusun Krajan, Taji, Kec. Jabung, Kabupaten Malang, Jawa Timur 65155 Malang"
Coban Pelangi,-8.0112624920149,112.86565380587,"Dusun Ngadas, Ngadas, Poncokusumo, Kabupaten Malang, Jawa Timur 65157 Malang"
Coban Rondo,-7.8838887489981,112.47989391849,"Jl. Coban Rondo, Krajan, Pandesari, Kec. Pujon, Kabupaten Malang, Jawa Timur 65391 Malang"
Alas Pujon Coban Sadang,-7.8693912138676,112.41412272343,"Dadapan Wetan, Bendosari, Pujon, Kabupaten Malang,Jawa Timur 65391 Malang"
Coban Sewu,-8.2302927316786,112.91618041271,"Dusun Besukcukit, Desa Sidomulyo, Kec. Pronojiwo, Kabupaten Lumajang, Jawa Timur Malang"
Coban Sumber Pitu Tumpang,-8.0133866489002,112.82173732626,"Krajan, Duwet Krajan, Kec. Tumpang, Kabupaten Malang, Jawa Timur 65156 Malang"
Coban Tundo,-8.341005640787,112.79474091091,"Gunung, Tambakasri, Kec. Sumbermanjing Wetan, Kabupaten Malang, Jawa Timur 65181 Malang"
Hutan Pinus Semeru,-8.1449952098592,112.82774011091,"Area Sawah/Kebun, Sumberputih, Kec. Wajak, Kabupaten Malang, Jawa Timur 65173 Malang"
Pantai Jonggring Saloko,-8.3791006693968,112.39610209587,"Desa Mentaraman, Donomulyo, Kabupaten Malang, Jawa Timur 65167 Malang"
Pantai Perawan Sidoasri,-8.3860084309667,112.77334199325,"Desa Sidoasri, Kecamatan Sumbermanjing Wetan, Kabupaten Malang, Jawa Timur Malang"
Pantai Clungup,-8.4375328997166,112.66859746441,"Sendang Biru, Area Sawah/Kebun, Tambakrejo, Kec. Sumbermanjing Wetan, Kabupaten Malang, Jawa Timur Malang"
Pantai Bajul Mati,-8.4367951343034,112.64160204949,"Umbulrejo, Dusun Gajahrejo, Kecamatan Gedangan, Kabupaten Malang, Jawa Timur Malang"
Pantai Balekambang,-8.4035183587177,112.53906125188,"Dusun Sumber Jambe, Desa Srigonco, Kecamatan Bantur, Kabupaten Malang, Jawa Timur Malang"
Pantai Bantol,-8.3947741515266,112.45210927442,"Dusun Sumberceleng, Desa Banjarejo, Kec. Donomulyo, Kabupaten Malang, Jawa Timur 65167 Malang"
Pantai Banyu Anjlok,-8.3703274175716,112.82058134784,"Dusun Lenggoksono, Desa Purwodadi, Kec. Tirtoyudo, Kabupaten Malang, Jawa Timur 65182 Malang"
Pantai Batu Bengkung,-8.4299858462051,112.6144257482,"Dusun Gajahrejo, Kecamatan Gedangan, Kabupaten Malang, Jawa Timur 65178 Malang"
Pantai Goa Cina,-8.4473210148035,112.6534840995,"Dusun Tambak, Desa Sitiarjo, Kecamatan Sumbermanjing Wetan, Kabupaten Malang, Jawa Timur 65176 Malang"
Pantai Jembatan Panjang,-8.4020113701084,112.53018219577,"Desa Sumberbening, Kecamatan Bantur, Kabupaten Malang, Jawa Timur 65179 Malang"
Pantai Kondang Merak,-8.3964319250527,112.51910491554,"Desa Sumberbening, Kecamatan Bantur, Kabupaten Malang, Jawa Timur 65179 Malang"
Pantai Lenggoksono,-8.3722766688368,112.8389264935,"Desa Purwodadi, Kecamatan Tirtoyudo, Kabupaten Malang, Jawa Timur 65182 Malang"
Pantai Modangan,-8.3488571656822,112.3590516465,"Dusun Sumberrejo, Desa Sumberoto, Kecamatan Donomulyo, Kabupaten Malang, Jawa Timur 65167 Malang"
Pantai Nganteb,-8.4084217583376,112.57541063473,"Desa Sidurejo, Kecamatan Gedangan, Kabupaten Malang, Jawa Timur 65178 Malang"
Pantai Ngliyep,-8.3833803149136,112.42420539577,"Desa Kedungsalam, Kec. Donomulyo, Kabupaten Malang, Jawa Timur 65167 Malang"
Pantai Ngudel,-8.4159873389233,112.58565987962,"Desa Sidurejo, Kecamatan Gedangan, Kabupaten Malang, Jawa Timur 65147 Malang"
Pantai Pasir Panjang,-8.3811810783448,112.4204777562,"Desa Kedungsalam, Kec. Donomulyo, Kabupaten Malang, Jawa Timur 65167 Malang"
Pantai Regent,-8.4034095618181,112.54520564302,"Jl. Balekambang, Balaikambang, Desa Srigonco, Kec. Bantur, Kabupaten Malang, Jawa Timur 65179 Malang"
Pantai Bangsong,-8.4423800451633,112.6670785627,"Desa Tambakrejo, Kecamatan Sumbermanjing Wetan, Kabupaten Malang Malang"
Pantai Selok,-8.3970183265339,112.51404452389,"Dusun Kandangmerak, Desa Sumberbening, Kec. Bantur, Kabupaten Malang, Jawa Timur 65179 Malang"
Pantai Sendang Biru,-8.430481149381,112.68416653013,"Dusun Sendang Biru, Desa Tambakrejo, Kecamatan Sumbermanjing Wetan, Kabupaten Malang Malang"
Pantai Sendiki,-8.4150719807488,112.72559470736,"Area Sawah/Kebun, Tambakrejo, Kec. Sumbermanjing Wetan, Kabupaten Malang, Jawa Timur 65148 Malang"
Pantai Tamban,-8.4155212367483,112.71017087371,"Kp. Pantai, Tambakrejo, Kec. Sumbermanjing Wetan, Kabupaten Malang, Jawa Timur 65176 Malang"
Pantai Tiga Warna,-8.4370621732138,112.6771073846,"Jl. Sendang Biru, Area Sawah/Kebun, Tambakrejo, Kec. Sumbermanjing Wetan, Kabupaten Malang, Jawa Timur 65176 Malang"
Pantai Ungapan,-8.4344691377333,112.63907545667,"Gajahrejo, Kecamatan Gedangan, Kabupaten Malang, Jawa Timur. Malang"
Pantai Watu Leter,-8.4451152321015,112.64852486606,"Dusun Rowotrate, Desa Sitiarjo, Kecamatan Sumbermanjing Wetan, Kabupaten Malang, Jawa Timur Malang"
Pantai Wonogoro,-8.4054193489311,112.5668271413,"Dusun Sukorejo, Desa Tumpakrejo, Kecamatan Gedangan, Kabupaten Malang, Jawa Timur, Malang 65178 Malang"
Sumber Jenon,-8.0494202506862,112.71646569742,"Area Sawah, Gunungronggo, Kec. Tajinan, Kabupaten Malang, Jawa Timur 65172 Malang"
Sumber Sirah,-8.1226928573299,112.6200498251,"Jalan Sunan Kalijaga I RT.05/RW.02, Putuk Utara, Putukrejo, Kec. Gondanglegi, Kabupaten Malang, Jawa Timur 65174 Malang"
Lembah Indah,-8.000856994071,112.4934812244,"Gendogo, Balesari, Kec. Ngajum, Kabupaten Malang, Jawa Timur 65164 Malang"
Petirtaan Ken Dedes Watugede,-7.8975090541523,112.66884945417,"Gondorejo Krajan, Tamanharjo, Kec. Singosari, Kabupaten Malang, Jawa Timur 65153 Malang"
Pemandian Metro,-8.1264316616016,112.56164423975,"Jl. Kawi, Sukun, Kepanjen, Kec. Kepanjen, Kabupaten Malang, Jawa Timur 65163 Malang"
Pemandian Ranu Sosro,-8.2290402357366,112.88450694661,"Dusun Sumbersewu, Desa Tirtomoyo, Kec. Ampelgading, Kabupaten Malang, Jawa Timur 65183 Malang"
Pemandian Sumber Maron,-8.1653918827659,112.59200111091,"Dusun Adi Luwih, Karangsuko, Kecamatan Pagelaran, Kabupaten Malang, Jawa Timur 65174 Malang"
Pemandian Sumber Taman,-8.174443094465,112.59991492399,"Jl. Sumber Taman, Sidomakmur, Brongkal, Kec. Pagelaran, Kabupaten Malang, Jawa Timur 65174 Malang"
Precet Forest Park,-8.0002929181805,112.50837422626,"Precet, Sumbersuko, Kec. Wagir, Kabupaten Malang, Jawa Timur 65158 Malang"
Candi Songgoriti,-7.8669308117758,112.49278825509,"Jl. Raya Songgoriti, Songgokerto, Kec. Batu, Kota Batu, Jawa Timur 65312 Malang"
Wisata Religi Sumur Pitu,-8.4021511861941,112.53157936859,"Area Sawah/Kebun, Sumberbening, Kec. Bantur, Kabupaten Malang, Jawa Timur 65179 Malang"
Pantai Gunung Kombang/Wisata Gunung Kombang,-8.386360651492,112.42573380665,"Desa Kedungsalam, Kec. Donomulyo, Kabupaten Malang, Jawa Timur 65167 Malang"
Taman Wisata Lembah Dieng,-7.9646965574639,112.59786468738,"Jl. Wisata No.99, Sumberjo, Kalisongo, Kec. Dau, Kabupaten Malang, Jawa Timur 65151 Malang"
Taman Rekreasi Sengkaling,-7.9154504561873,112.58894366019,"Jl. Raya Sengkaling No.188, Jetis, Mulyoagung, Kec. Dau, Kabupaten Malang, Jawa Timur 65153 Malang"
Arca Dwarapala,-7.886704533591,112.66191921091,"Jl. Kertanegara Bar. No.15, Pagetan, Candirenggo, Kec. Singosari, Kabupaten Malang, Jawa Timur 65153 Malang"
Arca Ganesha,-8.152833135139,112.44366526859,"Karangkates, Kec. Sumberpucung, Kabupaten Malang, Jawa Timur 65165 Malang"
Candi Badut,-7.9570263128404,112.5986169,"Jl. Raya Candi V No.5D, Doro, Karangwidoro, Kec. Dau, Kabupaten Malang, Jawa Timur 65146 Malang"
Candi Jago,-8.0055883451414,112.76413511277,"Jl. Wisnuwardhana, Ronggowuni, Tumpang, Kec. Tumpang, Kabupaten Malang, Jawa Timur 65156 Malang"
Candi Jawar,-8.1484105282212,112.88918759752,"Kaliputih Mulyosari, Argoyuwono, Ampelgading, Kabupaten Malang, Jawa Timur 65183 Malang"
Candi Kidal,-8.0253047546517,112.70859233975,"Jl. Raya Candi, Kidal, Kec. Tumpang, Kabupaten Malang Malang"
Candi Singosari,-7.8876239160542,112.66387863975,"Jl. Kertanegara No.148, Candirenggo, Kec. Singosari, Kabupaten Malang, Jawa Timur 65153 Malang"
Stupa Sumberawan,-7.8552091296881,112.64475578207,"Bodean Krajan, Toyomarto, Kec. Singosari, Kabupaten Malang, Jawa Timur 65153 Malang"
Wisata Religi Keraton Gunung Kawi,-8.0025583071546,112.48600229721,"Area Gn. Pitrang, Balesari, Kec. Ngajum, Kabupaten Malang, Jawa Timur 65164 Malang"
Masjid Tiban,-8.1505805747081,112.71331379742,"Jalan KH Wahid Hasyim Gang Anggur Nomor 17 RT 27 RW 06, Sananrejo, Turen, Sananrejo, Kec. Turen, Kabupaten Malang, Jawa Timur 65175 Malang"
Petilasan Watu Gilang,-7.8284038741935,112.42125229742,"Hutan, Ngabab, Kec. Pujon, Kabupaten Malang, Jawa Timur 65391 Malang"
Makam Mbah Bergas,-8.0831045492215,112.62633722626,"Dusun Sidomukti, Lumbangsari, Kec. Bululawang, Kabupaten Malang, Jawa Timur 65171 Malang"
Desa Wisata Gubugklakah,-8.0278192736796,112.8234244853,"Jl. Raya Gubugklakah, Besuki Selatan, Wringinanom, Kec. Poncokusumo, Kabupaten Malang, Jawa Timur 65157 Malang"
Desa Wisata Pujon Kidul,-7.8548343907642,112.45590320818,"Kawasan Cafe Sawah, Pujon, Krajan RT08 RW04, Pujon Kidul, Kec. Pujon, Kabupaten Malang, Jawa Timur 65391 Malang"
Desa Wisata Sanankerto Boonpring,-8.1554154438446,112.76196186022,"Sanankerto, Turen, Dusun Kp. Anyar, Sanankerto, Turen, Malang Regency, East Java 65181 Malang"
Desa Wisata Bowele Purwodadi,-8.3519008627116,112.85501180675,"Jalan Raya Desa Purwodadi RT12 RW03, Kecamatan Tirtoyudo, Kab.Malang, Jawa Timur Malang"
Desa Wisata Tambakrejo,-8.3911375761669,112.7032405983,"Kecamatan Sumbermanjing Wetan, Kabupaten Malang, Jawa Timur, 65176 Malang"
Desa Wisata Ngadirejo,-7.9923568143584,112.78380134377,"Desa Ngadirejo, Kecamatan Jabung, Kabupaten Malang, Jawa Timur Malang"
Desa Wisata Sambang Sedulor Pujiharjo,-8.3707785810253,112.88691592246,"Kecamatan Tirtoyudo, Kabupaten Malang, Jawa Timur, 65182 Malang"
Desa Adat Ngadas,-8.0206646332647,112.90637826867,"Kecamatan Poncokusumo, Kabupaten Malang, Jawa Timur Malang"
Desa Wisata Poncokusumo,-8.0530278450315,112.80918786859,"Dusun I RT 06 RW 05, Poncokusumo, Kec. Poncokusumo, Kabupaten Malang, Jawa Timur 65157 Malang"
Desa Wisata PKK Waturejo,-7.8354491640417,112.36973522626,Jl.Trunojoyo Nomor .10 Dusun Watukidul Desa Waturejo Kecamatan Ngatang Kabupaten Malang Malang
Desa Wisata Ampelgading,-8.1950250567533,112.83568689742,"Jl. Sunan Kudus, Dusun Dami Ampeldento, Kecamatan Tirtoyudo, Kabupaten Malang, Jawa Timur Malang"
Desa Wisata Wonosari,-8.0228779939185,112.49327873884,"Jl. Pesarean No. 42 RT. 09 RW. 05, Desa Wonosari, Kecamatan Wonosari, Kabupaten Malang, Jawa Timur, 65164 Malang"
Desa Wisata Selorejo,-7.9040406950757,112.58068538624,"Kecamatan Dau, Kabupaten Malang, Provinsi Jawa Timur Malang"
Desa Wisata Kampung Ratu,-7.7989546970602,112.31294711703,Dusun Rukem RT 015 RW 05 Desa Bayem Kecamatan Kasembon Kabupaten Malang Malang
Desa Wisata Sumber Ngepoh,-7.8378249458919,112.73065720344,"Kecamatan Lawang, Kabupaten Malang, Provinsi Jawa Timur Malang"
Desa Wisata Jeru,-7.9901329529616,112.76209183584,"Jl. Raya Jeru, Tegalrejo, Jeru, Kec. Tumpang, Kabupaten Malang, Jawa Timur 65156 Malang"
Desa Wisata Sunny Mulyorejo,-7.863546905016,112.37917343682,"Desa Mulyorejo, Kecamatan Ngantang, Kabupaten Malang, Jawa Timur Malang"
Kampung Ekowisata Bendosari,-7.862273175304,112.42695722286,"Kecamatan Pujon, Kabupaten Malang, Jawa Timur, 65391 Malang"
Desa Wisata Pramuka Lebakharjo,-8.3016877558886,112.90346727351,"Krajan Saru B, Lebakharjo, Kec. Ampelgading, Kabupaten Malang, Jawa Timur 65183, Indonesia Malang"
Desa Wisata Paralayang Sumberoto,-8.3324768861326,112.37531338855,"Jl. Raya Sumberoto Nomor 123 Desa Sumberoto, Kecamatan Donomulyo, Kabupaten Malang Provinsi Jawa timur Malang"
Desa Wisata Jambuwer,-8.0947244033212,112.46180655019,"Kecamatan Kromengan, Kabupaten Malang, Jawa Timur, 65165 Malang"
Desa Wisata Kaki Langit Taji,-7.9513886201979,112.82133105318,"Jl Simpang Tembus, Dusun Krajan, Taji, Kec. Jabung, Kabupaten Malang, Jawa Timur 65155 Malang"
Desa Wisata Dlundung,-7.6818295535212,112.5937901422,Kabupaten Mojokerto Mojokerto
Air Terjun Sedudo,-7.7812348432538,111.75762825644,Kabupaten Nganjuk Nganjuk
Goa Margo Tresno,-7.4457286469104,111.93549826962,Kabupaten Nganjuk Nganjuk
Roro Kuning,-7.7798787903322,111.84380827868,Kabupaten Nganjuk Nganjuk
Air Terjun Pengantin,-7.5457833760424,111.20950805534,Desa Hargomulyo Kec Ngrambe Kabupaten Ngawi Ngawi
Perkebunan Teh Jamus,-7.5614590639382,111.18416688602,Desa Girikerto Kec Sine Kab.Kabupaten Ngawi Ngawi
Watu Jonggol,-7.5540720086805,111.1681779265,Desa Pandansari Kec.Sine Kabupaten Ngawi Ngawi
Adess Poll,-7.4014838270071,111.44205919595,Kabupaten Ngawi Ngawi
Argo Munung,-7.5890344496134,111.2659950783,Desa Karanggupito Kec.Kendal Kabupaten Ngawi Ngawi
Embung Pandeyan,-7.2743557992548,111.1597537748,Desa Pandean Kecamatan Karanganyar Kabupaten Ngawi Ngawi
Gayam Park,-7.5545633129076,111.27257425072,Desa Gayam Kecamatan Kendal Kabupaten Ngawi Ngawi
Kuliner dan Kolam Renang Hargo Dumilah,-7.5216763356447,111.23629844706,Jl.Jogorogo- Ngrambe Desa Setono Kecamatan Ngrambe Kabupaten Ngawi Ngawi
Wisata Tirta Jahe Klenting,-7.3979517832264,111.3373046685,Desa Jenggrik Kecamatan Kedunggalar Kabupaten Ngawi Ngawi
Kayangan,-7.538446508543,111.25305074369,Dusun Kayangan Desa Brubuh Kec.Jogorogo Kabupaten Ngawi Ngawi
Keppo pool,-7.4091487279918,111.22503412002,Desa Walikukun Kecamatan Widodaren Kabupaten Ngawi Ngawi
Kolam Renang Banyurejo,-7.4124548678609,111.31879605685,Desa Jenggrik Kecamatan Kedunggalar Kabupaten Ngawi Ngawi
Monumen Soerjo,-7.3781671746653,111.28439609918,Desa Pelanglor Kecamatan Kedunggalar Kabupaten Ngawi Ngawi
Onggo Joyo,-7.5027947070902,111.2076367265,Jl.Musi No.12 RT.04/04 Ngrambe Kecamatan Ngrambe Kabupaten Ngawi Ngawi
Pemandian Tawun,-7.3966514305003,111.49091305279,desa tawun Kec.Kasreman Kabupaten Ngawi Ngawi
Pesona Embung Pandean,-7.2904734787421,111.17345217978,Jln Embung Desa Pandean Kec.Karanganyar Kabupaten Ngawi Ngawi
Prahu Laga Pool,-7.4419028946624,111.54922575353,Jln.raya Ngawi-Caruban desa Kedungprahu Kecamatan Pasar Kabupaten Ngawi Ngawi
Selondo,-7.5679146341261,111.25013652003,Desa Ngrayudan Kecamatan Jogorogo Kabupaten Ngawi Ngawi
Setia Fun,-7.4807291442639,111.14876919771,desa Tulakan Kecamatan Sine Kabupaten Ngawi Ngawi
Srambang Park,-7.5660798923223,111.23076462617,Desa Girimulyo Kecamatan Jogorogo Kabupaten Ngawi Ngawi
Sumberkoso,-7.5523789150747,111.18157011268,Desa Girikerto Kecamatan Sine Kabupaten Ngawi Ngawi
Suwono Indah Park,-7.5524396793452,111.2011031112,Desa Hargomulyo Kecamatan.Ngrambe Kabupaten Ngawi Ngawi
Taman Olba,-7.5170135619729,111.41108681083,Desa Gerih Kecamatan Gerih Kabupaten Ngawi Ngawi
Taman Wisata Tawun,-7.3967791222686,111.4908916112,Desa tawun Kec.Kasreman Kabupaten Ngawi Ngawi
Tirto Nirmolo,-7.4662925357797,111.42879733411,Desa Tempuran Kecamatan Paron Kabupaten Ngawi Ngawi
Waduk Pondok,-7.4110714365857,111.56335146543,Desa dero Kecamatan Bringin Kabupaten Ngawi Ngawi
Museum Trinil,-7.3741440554651,111.35750848014,Desa Kawu Kecamatan Kedunggalar Kabupaten Ngawi Ngawi
Desa Wisata Ngrayudan,-7.5241284589677,111.24532060472,Desa Ngrayudan Kecamatan Jogorogo Kabupaten Ngawi Ngawi
Desa Wisata Dempel,-7.4477983983993,111.45550517186,Desa Dempel Kecamatan Geneng Kabupaten Ngawi Ngawi
Desa Wisata Giri Kerto,-7.5371339435679,111.18804670632,"Desa Giri kerto, Kecamatan Sine Kabupaten Ngawi Ngawi"
Desa Wisata Ngale,-7.3955875686349,111.37421871988,Desa Ngale Kecamatan Paron Kabupaten Ngawi Ngawi
Desa Wisata Kerek,-7.3697723910131,111.46491349287,Desa Kerek Kecamatan Ngawi Kabupaten Ngawi Ngawi
Desa Wisata Dero,-7.4280303478137,111.55257417467,Desa Dero Kecamatan Bringin Kabupaten Ngawi Ngawi
Desa Wisata Karanggupito,-7.557292018297,111.25594260882,Desa Karanggupito Kecamatan Kendal Kabupaten Ngawi Ngawi
Desa Wisata Pandansari,-7.5373769550813,111.1617859391,Desa Pandansari Kecamatan Sine Kabupaten Ngawi Ngawi
Desa Wisata Tawun,-7.3967365640422,111.49080578061,Desa Tawun Kecamatan Kasreman Kabupaten Ngawi Ngawi
Desa Wisata Kawu,-7.38384114329,111.35737121697,Desa Kawu Kecamatan Kedunggalar Kabupaten Ngawi Ngawi
Desa Wisata Brubuh Kayangan,-7.5281618922564,111.25231927911,Desa Brubuh Kecamatan Jogorogo Kabupaten Ngawi Ngawi
Desa Wisata Kuniran,-7.4924112081194,111.1551588547,Desa Kuniran Kecamatan Sine Kabupaten Ngawi Ngawi
Desa Wisata Wonosari,-7.553654196629,111.16001128399,Desa Wonosari Kecamatan Sine Kabupaten Ngawi Ngawi
Desa Wisata Melikan,-7.4607839940951,111.39667899375,Desa Tempuran Kecamatan Paron Kabupaten Ngawi Ngawi
Desa Wisata Hargomulyo,-7.5464590696826,111.20427231415,Desa Hargo mulyo Kecamatan Ngrambe Kabupaten Ngawi Ngawi
Banyu Anget,-8.0909402360087,111.1312316376,Kabupaten Pacitan Pacitan
Goa Gong,-8.1650514263686,110.98001359547,Kabupaten Pacitan Pacitan
Goa Tabuhan,-8.1253827848388,110.98331135139,"Dusun Tabuhan, Desa Wareng, Kec. Punung, Kabupaten Pacitan, Jawa Timur 63553 Pacitan"
Pantai Banyutibo,-8.2125599279181,110.9131471518,"Desa Widoro, Kecamatan Donorojo, Kabupaten Pacitan, Jawa Timur 63554 Pacitan"
Pantai Buyutan,-8.2188327935468,110.92036366489,"Dusun Tumpakwatu, Desa Widoro, Kec. Donorojo, Kabupaten Pacitan, Jawa Timur 63554 Pacitan"
Pantai Klayar,-8.2237426634647,110.94739899038,"Dusun Kendal, Desa Sendang Kecamatan Donorojo, Kabupaten Pacitan, Jawa Timur Pacitan"
Pantai Ngriboyo,-8.2292916493716,110.96021914744,"Dusun Sambi, Desa Kalak, Kecamatan Donorojo, Kabupaten Pacitan, Jawa Timur Pacitan"
Pantai Pancer Door,-8.2237608879106,111.09809392626,"Kelurahan Ploso, Kecamatan Pacitan, Kabupaten Pacitan, Jawa Timur 63512 Pacitan"
Pantai Pidakan,-8.252559862847,111.24410534824,"Dusun Godeg Wetan, Desa Jetak, Kecamatan Tulakan, Kabupaten Pacitan, Jawa Timur 63571 Pacitan"
Pantai Soge,-8.2479943024619,111.26285286546,"Desa Sidomulyo, Kecamatan Ngadirojo, Kabupaten Pacitan Pacitan"
Pantai Srau,-8.2501916960396,110.99486170741,"Desa Candi, Kecamatan Pringkuku, Kabupaten Pacitan, Jawa Timur 63552 Pacitan"
Pantai Taman,-8.2569477187512,111.30428319827,"Dusun Taman, Desa Hadiwarno, Kecamatan Ngadirojo, Kabupaten Pacitan, Jawa Timur 63572 Pacitan"
Api Tak Kunjung Padam,-7.2049578,113.45883,Kabupaten Pamekasan Pamekasan
Ekowisata Mangrove Lembung,-7.1650476,113.5737476,"Lembung, Kec. Galis, Kabupaten Pamekasan, Jawa Timur Pamekasan"
Pantai Jumiang,-7.2335225,113.5492742,"Ds. Tanjung, Kec. Pademawu, Kabupaten Pamekasan, Jawa Timur Pamekasan"
Pantai Talang Siring,-7.1384095639095,113.58940573087,"Ds Montok, Larangan, Kab. Pamekasan Pamekasan"
Bukit Brukoh,-7.0575629,113.5737771,"Ds. Bajang, Kec. Pakong, Kabupaten Pamekasan Pamekasan"
Bukit Kehi,-7.0767816,113.606153,"Ds. Kertagena Daya, Kec. Kadur, Kabupaten Pamekasan, Jawa Timur Pamekasan"
Edu Wisata Garam,-7.1798832312942,113.53786413553,"Ds. Bunder, Kec. Pademawu, Kabupaten Pamekasan, Jawa Timur Pamekasan"
Kampoeng Durian Pamekasan,-7.0230226,113.5009283,"Ds Tebul Tim., Kec. Pegantenan, Kabupaten Pamekasan, Pamekasan"
Kampung Toron Semalem,-7.1110756,113.5010359,"Ds Tambak, Blumbungan, Kec. Larangan, Kabupaten Pamekasan, Jawa Timur Pamekasan"
Puncak Ratu,-7.0270443,113.4882264,"Ds Tebul barat, Pegantenan, Pamekasan Pamekasan"
Wisata Sawah,-7.0500914,113.576608,"Ds. Bajang, Kec. Pakong, Kabupaten Pamekasan, Jawa Timur 69352 Pamekasan"
Pasarean Batu Ampar,-7.0981027,113.3742816,"Tompeng, Tattangoh, Proppo, Pamekasan Pamekasan"
Makam Ronggo Sukowati,-7.1519494,113.4830603,"Jl. Ronggosukowati, Kolpajung, Kec. Pamekasan, Kabupaten Pamekasan, Jawa Timur Pamekasan"
Museum Umum Mandilaras,-7.1602004,113.4803926,"Jl. Cokroatmojo No.1, Rw. 03, Barurambat Kota, Kec. Pamekasan, Kabupaten Pamekasan, Jawa Timur Pamekasan"
Vihara Avalokitesvara,-7.1467651,113.5792256,"Candi Utara, Polagan, Galis, Pamekasan Pamekasan"
Taman Edukasi &quot;TITIK SEJUTA WARNA&quot;,-7.206523,113.5164246,"Jl.raya, Malangan, Pademawu Tim., Kec. Pademawu, Kabupaten Pamekasan, Jawa Timur 69323 Pamekasan"
Tanean Lanjhang,-7.1036661,113.5658777,"Larangan Luar, Kec. Larangan, Kabupaten Pamekasan, Jawa Timur 69383 Pamekasan"
Pantai The Legend,-7.2389322,113.5307488,"Laok Tambak, Padelegan, Pademawu, Pamekasan Regency, East Java 69323 Pamekasan"
Air Panas Tirta Husada,-7.8169575304289,111.63565860931,"Jl. Raya Ngebel, Pucuk, Wagir Lor, Kec. Ngebel, Kabupaten Ponorogo, Jawa Timur 63493 Ponorogo"
Air Terjun Coban Lawe,-7.8462643773177,111.72168681435,"Pegunungan, Krisik, Kec. Pudak, Kabupaten Ponorogo, Jawa Timur 63482 Ponorogo"
Air Terjun Jurang gandul,-8.0919555126582,111.42617898593,"Ngembel, Baosan Lor, Kec. Ngrayun, Kabupaten Ponorogo, Jawa Timur 63464 Ponorogo"
Air Terjun Pletuk,-7.8897911449854,111.6864217408,"Kranggan, Setumbal, Jurug, Kec. Sooko, Kabupaten Ponorogo, Jawa Timur 63482 Ponorogo"
Goa Lowo Ponorogo,-7.8139596394043,111.37164773644,"Boworejo, Sampung, Kec. Sampung, Kabupaten Ponorogo, Jawa Timur 63454 Ponorogo"
Gunung Beruk,-7.9504869400467,111.35384584225,"Desa Karang Patihan, Balong, Hutan, Hutan Negara, Kec. Jambon, Kabupaten Ponorogo, Jawa Timur 63461 Ponorogo"
Mloko Sewu,-7.7915862213986,111.64625242356,"Prumbon, Pupus, Kec. Ngebel, Kabupaten Ponorogo, Jawa Timur 63493 Ponorogo"
Ngebel Adventure Park,-7.7888837553994,111.64118117339,"Dukuh Semenok, Ngebel, Kec. Ngebel, Kabupaten Ponorogo, Jawa Timur 63493 Ponorogo"
Sendang Bulus,-8.0092364467362,111.46950489561,"Pager Tengah, Pager, Kec. Bungkal, Kabupaten Ponorogo, Jawa Timur 63462 Ponorogo"
Telaga Ngebel,-7.7969366345747,111.63085150365,"Telaga Ngebel, Ngebel, Kec. Ngebel, Kabupaten Ponorogo, Jawa Timur Ponorogo"
Tubing Mendak,-7.8626398236465,111.68634298347,"Bangunsari, Wagir Kidul, Pulung, Ponorogo Regency, East Java 63481 Ponorogo"
Brilliant Water Park,-7.8483403,111.6092186,"Krajan, Plunturan, Kec. Pulung, Kabupaten Ponorogo, Jawa Timur 63481 Ponorogo"
Bukit Suharto,-7.8713026957946,111.31517035564,"Jl. Ponorogo - Wonogiri, Hutan, Hutan Negara, Kec. Badegan, Kabupaten Ponorogo, Jawa Timur 63455 Ponorogo"
Kampung Durian,-7.7995451330969,111.60195953586,"Ngresik, Ngrogung, Kec. Ngebel, Kabupaten Ponorogo, Jawa Timur 63493 Ponorogo"
Sumorobangun Flowers Biting,-7.8682819417192,111.30507289071,"Biting, Kec. Badegan, Kabupaten Ponorogo, Jawa Timur 63455 Ponorogo"
Taman Wisata Ngembag,-7.8698551727363,111.49876827304,"Taman Wisata Ngembag, Jl. Halim Perdana Kusuma, Ronowijayan, Kec. Siman, Kabupaten Ponorogo, Jawa Timur 63471 Ponorogo"
Kolam Renang Tirto Menggolo,-7.8642553803597,111.48014900327,"Jl. Pramuka No.31, Sultanagung, Kertosari, Kec. Siman, Kabupaten Ponorogo, Jawa Timur 63491 Ponorogo"
Festival Reyog Mini,-7.8718200250577,111.46223470002,"Jl. Alun-Alun Timur Barat No.7, Ponorogo, Mangkujayan, Kec. Ponorogo, Kabupaten Ponorogo, Jawa Timur 63413 Ponorogo"
Festival Nasional Reog Ponorogo,-7.8718128287331,111.46221653799,"Jl. Alun-Alun Timur Barat No.7, Ponorogo, Mangkujayan, Kec. Ponorogo, Kabupaten Ponorogo, Jawa Timur 63413 Ponorogo"
Makam Astana Srandil,-7.8663246504414,111.3798362204,"Jl. Astana, Srandil, Kec. Jambon, Kabupaten Ponorogo, Jawa Timur 63456 Ponorogo"
Makam Batoro Katong,-7.8509101246843,111.49632965824,"Plampitan, Setono, Kec. Jenangan, Kabupaten Ponorogo, Jawa Timur 63491 Ponorogo"
Makam Agung Kyai Ageng Muhammad Besari,-7.9311424780682,111.48276196738,"Jinontro, Tegalsari, Kec. Jetis, Kabupaten Ponorogo, Jawa Timur 63473 Ponorogo"
Makam Tumenggung Djajengrono,-7.8803723076307,111.61246637324,"Krajan, Pulung Merdiko, Kec. Pulung, Kabupaten Ponorogo, Jawa Timur 63481 Ponorogo"
Masjid Tegalsari,-7.9312440824547,111.48296244725,"Jinontro, Tegalsari, Kec. Jetis, Kabupaten Ponorogo, Jawa Timur 63473 Ponorogo"
Pentas Reog Bulan Purnama,-7.8718005342707,111.46218939058,"Jl. Alun-Alun Timur Barat No.7, Ponorogo, Mangkujayan, Kec. Ponorogo, Kabupaten Ponorogo, Jawa Timur 63413 Ponorogo"
Pentas Reog Telaga Ngebel,-7.7919210732573,111.6367395595,"Telaga Ngebel, Ngebel, Kec. Ngebel, Kabupaten Ponorogo, Jawa Timur Ponorogo"
Pentas Teater,-7.8638868768577,111.47928394346,"Jl. Pramuka No.19, Sultanagung, Nologaten, Kec. Ponorogo, Kabupaten Ponorogo, Jawa Timur 63411 Ponorogo"
Pentas Wayang Akhir Bulan,-7.8704778066774,111.4622543151,"Jl. Alun-Alun Timur Barat No.7, Ponorogo, Mangkujayan, Kec. Ponorogo, Kabupaten Ponorogo, Jawa Timur 63413 Ponorogo"
Petilasan Eyang Ismoyo / Klampis Ireng,-7.8866026061868,111.44221154406,"Krajan, Sragi, Kec. Sukorejo, Kabupaten Ponorogo, Jawa Timur 63453 Ponorogo"
Situs Watu Dukun,-7.8380532742159,111.3243348444,"Pagerukir, Kec. Sampung, Kabupaten Ponorogo, Jawa Timur 63454 Ponorogo"
Beji Sirah Keteng,-7.9798743,111.4894922,"Desa bedingin, kecamatan Sambit, Kabupaten Ponorogo Ponorogo"
W.A.W. Joko Tingkir,-7.9068570657218,111.36797470629,Kabupaten Ponorogo Ponorogo
Tumpak Lego Hill,-8.0647770313771,111.4482870698,Kabupaten Ponorogo Ponorogo
Ngambang Tirto Kencono,-7.801944683523,111.63906186819,Kabupaten Ponorogo Ponorogo
Keraton Water Park,-7.8732361042319,111.46195319052,Kabupaten Ponorogo Ponorogo
Gunung Gemplah,-7.9669797,111.4953243,"Desa bedingin, kecamatan Sambit, Kabupaten Ponorogo Ponorogo"
Desa Pager,-8.009364,111.47001,Kabupaten Ponorogo Ponorogo
Beji Kaponan,-7.911992,111.512213,"Dukuh Kaponan, RT/RW 001/001, Desa Kaponan, Kec. Mlarak, Kabupaten Ponorogo Ponorogo"
Desa Wagir Lor,-7.80892,111.614886,Kabupaten Ponorogo Ponorogo
Pemancingan Dam Gendol,-7.9234732,111.483818,"jl. Werkudoro, Dkh. Jabung, Ds. Jabung, kec. Mlarak, Kabupaten Ponorogo Ponorogo"
Desa Paringan,-7.832621,111.576654,Kabupaten Ponorogo Ponorogo
Agrowisata Strawberry Jetak,-7.9162690988747,112.9883997984,Kabupaten Probolinggo Probolinggo
Agrowisata Strawberry Sapikerep,-7.9056412230384,113.03366256147,Kabupaten Probolinggo Probolinggo
Air Terjun Desa Wisata Rengganis,-7.8846693165116,113.4632826443,Kabupaten Probolinggo Probolinggo
Air Terjun Kali Pedati,-7.9323302234852,113.48502144969,Kabupaten Probolinggo Probolinggo
Air Terjun Madakaripura,-7.8476055338898,113.0160999374,Kabupaten Probolinggo Probolinggo
Air Terjun Umbulan,-7.8860037815175,113.05177361394,Kabupaten Probolinggo Probolinggo
Binor Harmony,-7.7138170525735,113.55793948071,Kabupaten Probolinggo Probolinggo
Bukit Betitang,-7.9249812685073,113.36268735238,Kabupaten Probolinggo Probolinggo
Bukit Kembang Puncaksari,-7.8974084425332,112.97352594076,Kabupaten Probolinggo Probolinggo
Gunung Bromo Ngadisari,-7.9324305351868,112.95313264522,Kabupaten Probolinggo Probolinggo
Tirta Ronggojalu,-7.8483805080453,113.24448031852,Kabupaten Probolinggo Probolinggo
Pantai Bahak,-7.7256977037108,113.11923613987,Kabupaten Probolinggo Probolinggo
Pantai Bentar,-7.777543420602,113.27668701721,Kabupaten Probolinggo Probolinggo
Pantai Darmo,-7.7351650656691,113.14610439119,Kabupaten Probolinggo Probolinggo
Pantai Dutah,-7.7176471225978,113.46555315608,Kabupaten Probolinggo Probolinggo
Pantai Tugu,-7.7507997444234,113.25537196034,Kabupaten Probolinggo Probolinggo
PT Noars Rafting,-7.9279097089021,113.34944189152,Kabupaten Probolinggo Probolinggo
P30,-7.9505381028244,112.99494065078,Kabupaten Probolinggo Probolinggo
Ranu Segaran Dan Air Panas,-7.9513400195073,113.39568706745,Kabupaten Probolinggo Probolinggo
Ranu Agung,-7.9768787289536,113.38776073492,Kabupaten Probolinggo Probolinggo
Regulo Lintas Nusantara Rafting,-7.8707690522871,113.36999399799,Kabupaten Probolinggo Probolinggo
Songa Alam Lestari Rafting,-7.8721710300581,113.37495337377,Kabupaten Probolinggo Probolinggo
Tirto Ageng,-7.8293966245063,113.06576553823,Kabupaten Probolinggo Probolinggo
Bermi EcoPark,-7.9588964531412,113.4941892532,Kabupaten Probolinggo Probolinggo
Bukit Dami,-7.9006042605273,113.24115741517,Kabupaten Probolinggo Probolinggo
Hapy Waterboom,-7.7976480315246,113.25144882109,Kabupaten Probolinggo Probolinggo
Kampung Madu,-7.8223493106901,113.06628038597,Kabupaten Probolinggo Probolinggo
Kolam Renang Marbagong,-7.8026598724786,113.30488835422,Kabupaten Probolinggo Probolinggo
Pemandian Jabung Tirta,-7.73971785764,113.45668102821,Kabupaten Probolinggo Probolinggo
Waterpark Modern,-7.7834944387106,113.27696089565,Kabupaten Probolinggo Probolinggo
Candi Jabung,-7.7351068844631,113.471793801,Kabupaten Probolinggo Probolinggo
Candi Kedaton,-8.0046668735658,113.44654083252,Kabupaten Probolinggo Probolinggo
Wisata Religi Miniatur Kabah,-7.7862626576906,113.2792160657,Kabupaten Probolinggo Probolinggo
Desa Wisata Andung Biru,-8.0045181333091,113.44505251379,Kabupaten Probolinggo Probolinggo
Air Terjun Toroan,-6.89272,113.31236,Jl Raya Ketapang-sokobanah Kabupaten Sampang Sampang
Goa Lebar,-7.1952703,113.2533225,Kabupaten Sampang Sampang
Hutan Kera Nepa,-6.897231,113.1977622,Kabupaten Sampang Sampang
Karang Laut Mandangin,-7.3088869,113.2170552,Kabupaten Sampang Sampang
Pantai Camplong,-7.2182661,113.3168295,Kabupaten Sampang Sampang
Pantai Lon Malang,-6.8889984,113.3931833,Jl. Bira Tengah Kec Sokobanah Kabupaten Sampang Sampang
Waduk Klampis,-7.0286756,112.9125259,Kabupaten Sampang Sampang
Sumur Tujuh Panji Laras,-7.209003,113.2310692,Kabupaten Sampang Sampang
Makam Sayid Utsman,-7.2277185,112.3434059,Kabupaten Sampang Sampang
Kawasan Makam Rato Ebuh,-7.2083979,113.2301395,Kabupaten Sampang Sampang
Situs Trunojoyo,-7.1942672,113.2387549,Kabupaten Sampang Sampang
Desa Wisata Agro Jambu Camplong Dan Mangrove Taddan,-7.2092145,113.2660094,Kabupaten Sampang Sampang
Desa Batik Kotah,-7.1083105,113.1317813,Kabupaten Sampang Sampang
Desa Budaya Napo laok,-7.1359372,113.298606,Kabupaten Sampang Sampang
Desa Wisata Gerabah Tlambah,-7.0357122,113.3734236,Kabupaten Sampang Sampang
Desa Budaya Kerapan Sapi Ketapang barat,-7.041624,112.9233335,Kabupaten Sampang Sampang
Desa Wisata Batik Montor,-6.9230502,113.1697948,"desa montor, kecamatan Banyuates Kabupaten Sampang Sampang"
Desa Wisata Petualangan Panjat Tebing Murgua - Tamberu Daya,-6.912788,113.473661,Desa Tanberu Daya- Kecamatan Sokobanah Sampang
Kampung Belanda Krampon,-7.1657111,113.1717887,Kabupaten Sampang Sampang
Wisata mangroove sreseh,-7.19542,113.09518,Kabupaten Sampang Sampang
Wisata Bahari Tlocor,-7.5526969189952,112.8452009484,Jl. Dermaga Tlocor Dusun Telocor Desa Kedung Pandan Kecamatan Jabon Kabupaten Sidoarjo Sidoarjo
Alas Outbound Prambon,-7.4855182675651,112.59715644048,"Ngingas, Simpang, Kec. Prambon, Kabupaten Sidoarjo, Jawa Timur 61264 Sidoarjo"
Intako Tanggulangin,-7.5050837351285,112.69431334284,"Jl. Utama Kendensari No.27, Nggodong, Kedensari, Kec. Tanggulangin, Kabupaten Sidoarjo, Jawa Timur Sidoarjo"
Keraton Waterpark Krian,-7.4014744409667,112.57603465584,"Jl. Bypass Krian, Sidomukti, Kraton, Kec. Krian, Kabupaten Sidoarjo, Jawa Timur Sidoarjo"
Kolam Pancing Dan Rumah Makan Lesehan Delta Fishing,-7.4292795350375,112.74979071657,"Jl. Mbah Sholeh No.1, Prasungtambak, Prasung, Kec. Buduran, Kabupaten Sidoarjo, Jawa Timur 61252 Sidoarjo"
Kolam Renang Antares,-7.4301847970521,112.59874042131,"Jl. Kyai Mojo Jl. Katerungan Krian No.235, Bakalan, Sadenganmijen, Kec. Krian, Kabupaten Sidoarjo, Jawa Timur 61261, Indonesia Sidoarjo"
Kolam Renang Candi Pari,-7.5206918362106,112.68100912892,"Desa Candipari, Kecamatan Porong, Candipari Wetan, Candipari, Wetan, Kabupaten Sidoarjo, Jawa Timur Sidoarjo"
Kolam Renang Citra Garden,-7.4262344055294,112.69341513948,"Ruko Sentra Niaga Blok Rk-32, Entalsewu, Buduran, Kab. Sidoarjo Jawa Timur Sidoarjo"
Kolam Renang Citra Harmoni,-7.3767862584048,112.63232946396,"Perumahan Citra Harmoni Km. 20 Jl. Raya Trosobo Bringin Bendo, Trosobo, Kec. Taman, Kabupaten Sidoarjo, Jawa Timur Sidoarjo"
Kolam Renang Golden Aquatic,-7.3798292983255,112.70125150681,"Jl. Suko Selatan No.23, Dusun Suko, Suko, Kec. Sukodono, Kabupaten Sidoarjo, Jawa Timur Sidoarjo"
Kolam Renang GOR,-7.4471570797166,112.70806890785,"Jl. Pahlawan No.200, Wismasarinadi, Magersari, Kec. Sidoarjo, Kabupaten Sidoarjo, Jawa Timur 61212 Sidoarjo"
Kolam Renang Ketegan Waterpark,-7.4962741793112,112.68380141199,"Jl. K.H Mashum Achmad No.59, Ketegan, Randegan, Kec. Tanggulangin, Kabupaten Sidoarjo, Jawa Timur 61272 Sidoarjo"
Kolam Renang Suko Asri,-7.4422986071037,112.67838355956,"Jalan Raya, Suko, Kabupaten Sidoarjo, Jawa Timur Sidoarjo"
Kusuma Tirta Minapolitan,-7.4833984871791,112.75997225532,"Desa Kedungpeluk Kecamatan Candi, Kedung Wonosari, Kedungpeluk, Kec. Sidoarjo, Kabupaten Sidoarjo, Jawa Timur 61271 Sidoarjo"
Legok Asri Outbound,-7.3770961805257,112.69742624262,"Jl. Raya Sukolegok, RT.12/RW.04, Dusun Legok, Suko, Kec. Sukodono, Kabupaten Sidoarjo, Jawa Timur Sidoarjo"
Permata Tas dan Koper Tanggulangin,-7.5023109201255,112.70369343468,"Komplek Pertokoan Permata Sidoarjo, Jl. Raya Kludan No.45-52, Kludan, Kalisampurno, Kec. Tanggulangin, Kabupaten Sidoarjo, Jawa Timur 61272 Sidoarjo"
Permata Waterpark Tanggulangin,-7.501659744589,112.69668039768,"Permata Sidoarjo, Jl. Raya Kludan, Kludan, Kec. Tanggulangin, Kabupaten Sidoarjo, Jawa Timur 61272 Sidoarjo"
Kolam Renang Puri Surya Jaya,-7.3896640613252,112.72590231464,"Perumahan, Jl. Puri Surya Jaya Jl. Taman Pasadena No.1, Ketajen, Kec. Gedangan, Kabupaten Sidoarjo, Jawa Timur 61254 Sidoarjo"
Water Park Suncity,-7.4500271292201,112.71253561383,"Jl. Pahlawan No.1, Rw6, Sidokumpul, Kec. Sidoarjo, Kabupaten Sidoarjo Sidoarjo"
Candi Dermo,-7.4388256843596,112.70621016078,"Dusun Candidermo, RT.04/RW.03, Candi Dermo, Candinegoro, Kec. Wonoayu, Kabupaten Sidoarjo, Jawa Timur 61261 Sidoarjo"
Candi Lemah Duwur,-7.5259578603256,112.69007205963,"Desa Pamotan, Kec. Porong, Kabupaten Sidoarjo, Jawa Timur Sidoarjo"
Candi Medalem,-7.47342578996,112.66106638774,"Desa Medalem, Kecamatan Tulangan, Kabupaten Sidoarjo. Sidoarjo"
Candi Pamotan,-7.5259498830151,112.68996024811,"Pamotan, Kec. Porong, Kabupaten Sidoarjo, Jawa Timur Sidoarjo"
Candi Pari,-7.5206821669802,112.68114569999,"Jl. Purbakala, Porong, Candipari, Candipari Kulon, Candipari, Kec. Porong, Kabupaten Sidoarjo, Jawa Timur 61274 Sidoarjo"
Candi Sumur,-7.520829084208,112.68125635914,"Candipari Kulon, Candipari, Kec. Porong, Kabupaten Sidoarjo, Jawa Timur 61274 Sidoarjo"
Candi Tawangalun,-7.3994469300934,112.77921238006,"Jalan Tawang Alun, Buncitan, Sedati, Dusun Kp. Baru, Buncitan, Kec. Sedati, Kabupaten Sidoarjo, Jawa Timur Sidoarjo"
Candi Wangkal,-7.5261898670404,112.65636606753,"Desa Wangkal, Kecamatan Krembung, Kabupaten Sidoarjo, Jawa Timur Sidoarjo"
Kampung Batik Al-Huda,-7.4610476255286,112.69644958784,"Perum Sidokare Asri Blok AW, Perum Sidokare, Sepande, Kec. Candi, Kabupaten Sidoarjo, Jawa Timur Sidoarjo"
Kampung Batik Jetis,-7.4537711737394,112.71005339084,"Jalan P. Diponegoro, Lemah Putro, Lemahputro, Kec. Sidoarjo, Kabupaten Sidoarjo, Jawa Timur Sidoarjo"
Makam Adipati Terung Kulon,-7.3988129123627,112.60746002197,"Kasak, Terungkulon, Kec. Krian, Kabupaten Sidoarjo, Jawa Timur Sidoarjo"
Makam Dewi Ayu Sekardadu,-7.4267345240678,112.72376247631,"Kepetingan, Sawohan, Kec. Buduran, Kabupaten Sidoarjo, Jawa Timur 61252 Sidoarjo"
Makam Mbah Ud,-7.4372597489548,112.70711190058,"Desa Pagerwojo, Kecamatan Buduran, Kabupaten Sidoarjo, Jawa Timur 61221 Sidoarjo"
Yussar Fishing And Playground,-7.3989733919812,112.60723312133,"Jl. Gagak Sifat, Kalidawir, Kec. Tanggulangin, Kabupaten Sidoarjo, Jawa Timur Sidoarjo"
Museum Mpu Tantular,-7.4324085312822,112.73037169055,"Jl. Raya Buduran - Jembatan Layang, Bedrek, Siwalanpanji, Kec. Buduran, Kabupaten Sidoarjo, Jawa Timur 61252 Sidoarjo"
Prasasti Kemlagen,-7.4375970392299,112.58652903324,"Usun Klagen, desa Tropodo, kecamatan Krian, kabupaten Sidoarjo Jawa Timur. Sidoarjo"
Situs Watu Tulis,-7.4483747446596,112.57850777996,"Sekelor Selatan, Watutulis, Kec. Prambon, Kabupaten Sidoarjo, Jawa Timur 61264 Sidoarjo"
Pura Margo Wening,-7.5005032092089,112.63858534711,Desa Balong Garut Kec. Krembung Kab. Sidoarjo Sidoarjo
Kampung Literasi Tapak Kalibendo,-7.4024403301844,112.71975845705,"Tebel Barat, Tebel, Kec. Gedangan, Kabupaten Sidoarjo Sidoarjo"
Pulau Lusi,-7.5442791788449,112.8148386208,"Kedungpandan, Jabon, Kabupaten Sidoarjo, Jawa Timur Sidoarjo"
Masjid Jami' Al-Abror,-7.4294438718252,112.75028491275,"Dusun Kauman, Kelurahan Pekauman, Kecamatan Sidoarjo, Kabupaten Sidoarjo Sidoarjo"
Wisata Belanja Tanggulangin,-7.5093531035218,112.70999764313,Desa Kludan Kecamatan Tanggulangin Kabupaten Sidoarjo Sidoarjo
Minipark Watesari,-7.4277514182923,112.55600472049,Desa Watesari Kecamatan Balongbendo Kabupaten Sidoarjo Sidoarjo
Agrowisata Petik Jambu Kebaron,-7.4864736980064,112.63024803051,Desa Kebaron Kecamatan Tulangan Kabupaten Sidoarjo Sidoarjo
Kampung Lali Gadget,-7.4188998419446,112.61715882586,Desa Pagerngumbuk Kecamatan Wonoayu Kabupaten Sidoarjo Sidoarjo
Desa Wisata Budaya Wage Bersinar,-7.4350475843865,112.62645407173,Desa Wage Kecamatan Taman Kabupaten Sidoarjo Sidoarjo
Air Terjun Talempong,-7.7509634,113.6036011,"Desa Talempong, Kec. Banyuglugur, Kabupaten Situbondo Situbondo"
Batu Mingghigir,-7.7772151,113.7081007,"Jl. Sumbermalang, Tunjang, Widoro Payung, Kec. Besuki, Kabupaten Situbondo, Jawa Timur 68356 Situbondo"
Gunung Bunter,-7.8143903,114.2065283,"Area Hutan, Kedonglo, Kec. Asembagus, Kabupaten Situbondo, Jawa Timur 68373 Situbondo"
Gunung Panceng,-7.8014138,114.230917,"Dusun Tenggara, Bantal, Kec. Asembagus, Kabupaten Situbondo, Jawa Timur 68373 Situbondo"
Kampung Blekok,-7.7024865,113.9198277,"Desa Klatakan, Kecamatan Kendit, Kabupaten Situbondo, Jawa Timur Situbondo"
Kampung Karang Kenek 26,-7.6949698,114.000895,"Area Sawah, Olean, Kec. Situbondo, Kabupaten Situbondo, Jawa Timur 68316 Situbondo"
argowisata Kayumas,-7.9312505,114.1360432,"Kayumas, Kec. Arjasa, Kabupaten Situbondo, Jawa Timur Situbondo"
Agrowisata Banongan,-7.7003581,114.2252477,"Desa Wringinanom, Kecamatan Asembagus, Kabupaten Situbondo Situbondo"
Pantai Dubibir,-7.7132639,113.7166631,"Pesisir, Ketah, Kec. Suboh, Kabupaten Situbondo, Jawa Timur Situbondo"
Pantai Muara Kasih,-7.6346547,114.0027646,"Gelung Tengah, Gelung, Kec. Panarukan, Kabupaten Situbondo, Jawa Timur 68351 Situbondo"
Pantai Pasir Putih,-7.6950214,113.8254743,"Pandansari, Pasir Putih, Kec. Bungatan, Kabupaten Situbondo, Jawa Timur Situbondo"
Pantai Tampora,-7.7243179,113.6463613,"Tampora, Kalianget, Kec. Banyuglugur, Kabupaten Situbondo, Jawa Timur 68359 Situbondo"
Plaza Rengganis,-7.8914898,113.6695937,"Jl. Puncak Jl. Argopuro, Area Hutan, Baderan, Kec. Sumbermalang, Kabupaten Situbondo, Jawa Timur 68355 Situbondo"
Situbondo adventure,-7.8086812,114.2352643,"Dusun Tenggara, Bantal, Kec. Asembagus, Kabupaten Situbondo, Jawa Timur 68373 Situbondo"
Taman Nasional Baluran,-7.8311831,114.3853618,"Area Hutan/Kebun, Sumberwaru, Kec. Banyuputih, Kabupaten Situbondo, Jawa Timur Situbondo"
Barokah Park,-7.7526846,114.2323224,"Jl. Raya Asembagus, Krajan, Wringinanom, Asembagus, Kabupaten Situbondo Jawaban Timur, Trigonco Timur, Trigonco, Kec. Asembagus, Kabupaten Situbondo, Jawa Timur 68373 Situbondo"
Cottok Innovation Park,-7.7235214,114.0613213,Kabupaten Situbondo Situbondo
Dawuhan Milenial Garden,-7.7019273,114.0033956,"Parse, Dawuhan, Kec. Situbondo, Kabupaten Situbondo, Jawa Timur 68311 Situbondo"
Grand Pathek,-7.6368944,113.9946211,"Gelung Selatan, Gelung, Kec. Panarukan, Kabupaten Situbondo, Jawa Timur 68351 Situbondo"
Kampung Kerapu,-7.6951124,113.894207,"Gundit, Klatakan, Kec. Kendit, Kabupaten Situbondo, Jawa Timur 68352 Situbondo"
Pemandian Taman,-7.7577126,113.6265417,"Klontong, Langkap, Kec. Besuki, Kabupaten Situbondo, Jawa Timur 68356 Situbondo"
Pabrik Gula Olean,-7.6772561,114.0121849,"Jl. Laksda Adi Sucipto, Olean Tengah, Olean, Kec. Situbondo, Kabupaten Situbondo, Jawa Timur 68316 Situbondo"
Utama Raya Beach,-7.721165,113.6136327,"Kec. Banyuglugur, Kabupaten Situbondo, Jawa Timur 68359 Situbondo"
Wisata Desa Patemon,-7.7524571,113.8291504,"Kec. Bungatan, Kabupaten Situbondo, Jawa Timur Situbondo"
Makam KH Asad Syamsul Arifin,-7.7516813,114.2733653,"Jl. KHR. Syamsul Arifin, Sukorejo, Sumberejo, Kec. Banyuputih, Kabupaten Situbondo, Jawa Timur 68374 Situbondo"
Makam Syaikh Maulana Ishaq,-7.6809736,113.8656893,"Pasir Putih, Bungatan, Kembangsambi, Pasir Putih, Situbondo, Kabupaten Situbondo, Jawa Timur 68358 Situbondo"
Desa Wisata Kebangsaan,-7.9217956,114.3855661,"Jl. Pandean, Randu Agung, Wonorejo, Kec. Banyuputih, Kabupaten Situbondo, Jawa Timur 68374 Situbondo"
Wisata Karang Kenek Olean,-7.6666241,113.8617977,"Area Sawah, Olean, Kec. Situbondo, Kabupaten Situbondo, Jawa Timur 68316 Situbondo"
Gili Iyang,-6.9845767675722,114.17445638564,Kabupaten Sumenep Sumenep
Gili Labak,-7.2027020060654,114.04575972501,Kabupaten Sumenep Sumenep
Ekowisata Mangrove Gunung Anyar,-7.3303261083414,112.82557369011,"Jl. Wisata Mangrove Gunung Anyar Tambak, Surabaya Surabaya"
Ekowisata Mangrove Medokan Sawah,-7.3097241930824,112.82338321209,"Jl. Medokan Sawah Timur Segoro, Surabaya Surabaya"
Ekowisata Mangrove Wonorejo,-7.3085855360079,112.82894047328,"Jl. Wonorejo Timur No.1, Wonorejo, Kec. Rungkut, Kota SBY, Jawa Timur 60296 Surabaya"
Ciputra Water Park,-7.2844820062413,112.63251182825,"Jl. Waterpark Boulevard Jl. Citraland Surabaya, Made, Kec. Sambikerep, Kota SBY, Jawa Timur 60219 Surabaya"
Surabaya Carnival,-7.3447715604049,112.73239731929,Jl. Ahmad Yani No.333 Kota Surabaya Surabaya
Taman Hiburan Rakyat,-7.2527694169373,112.75196363685,"Jl. Kusuma Bangsa No.116-118, Tambaksari, Kec. Tambaksari, Kota SBY, Jawa Timur 60136 Surabaya"
Taman Remaja,-7.2529426149857,112.75196132101,"Jl. Kusuma Bangsa No.116-118, Tambaksari, Kec. Tambaksari, Kota SBY, Jawa Timur 60136 Surabaya"
THP (Taman Hiburan Pantai) Kenjeran,-7.2378133521959,112.79553650969,Jl. Pantai Lama Kenjeran no. 1 Kota Surabaya Surabaya
House Of Sampoerna,-7.2310122027136,112.73414611816,"Taman Sampoerna No.6, Krembangan Utara, Kec. Pabean Cantikan, Kota SBY, Jawa Timur 60163 Surabaya"
Klenteng Hok An Kiong,-7.2398646030626,112.74064484934,Jl. Coklat No.2 Surabaya Surabaya
Museum Pendidikan,-7.2562153221824,112.74297058022,Jl. Genteng kali No. 10 Kota Surabaya Surabaya
UPTD Ampel,-7.2293784214959,112.74602294319,Kota Surabaya Surabaya
Goa Lowo,-8.211353,111.728682,Dusun Kambe Desa Watuagung Kecamatan Watulimo Kabupaten Trenggalek Trenggalek
Hutan Mangrove,-8.2976612874748,111.70742202128,"Jalan Pantai Cengkrong, 66382 Tirto, Tirto, Karanggandu, Kec. Watulimo, Kabupaten Trenggalek, Jawa Timur 66382 Trenggalek"
Pantai Cengkrong,-8.2963476930469,111.70840839475,Kabupaten Trenggalek Trenggalek
Pantai Karanggongso / Pasir Putih,-8.3053998,111.7251347,"Desa Tasikmadu, Kec. Watulimo, Kabupaten Trenggalek, Jawa Timur 66382 Trenggalek"
Pantai Mutiara,-8.3176627590937,111.74417990368,Desa Tasikmadu Kecamatan WatulimoKabupaten Trenggalek Trenggalek
Pantai Pelang,-8.2571931119228,111.42414201004,"Desa Wonocoyo, Kecamatan Panggul, Kabupaten Trenggalek, Jawa Timur 66364 Trenggalek"
Pantai Prigi,-8.2884871200872,111.71753525734,"Jl. Raya Pantai Tasikmadu, Ketawang,  Desa Tasikmadu, Kecamatan Watulimo, Kabupaten Trenggalek, Jawa Timur 66382 Trenggalek"
Wisata Goa Ngerit,-8.2037033299609,111.68086275242,"Area Hutan, Senden, Kec. Kampak, Kabupaten Trenggalek, Jawa Timur 66373 Trenggalek"
Wisata Tebing Linggo,-8.1115550405479,111.60036483708,"Jl. AKP ROESTAMAJI RT.06/RW.02 Dsn. Tawang, Area Gn., Nglebo, Kec. Suruh, Kabupaten Trenggalek, Jawa Timur 66360 Trenggalek"
Kolam Renang Tirta Jualita,-8.0722653089442,111.70582167941,Kabupaten Trenggalek Trenggalek
Rumah Apung,-8.3190501366351,111.74228465242,Desa Tasikmadu Kecamatan Watulimo Kabupaten Trenggalek Trenggalek
Waterpark Bukit Jass,-8.0552059324187,111.70294896591,Jln. Mayjend Sungkono No.1 Kabupaten Trenggalek Trenggalek
Desa Wisata Durensari,-8.2535475483859,111.6864963508,Desa Sawahan Kecamatan Watulimo Kabupaten Trenggalek Trenggalek
Dilem Wilis,-7.9282451011717,111.71680904903,Kawasan Selingkar Wilis Desa Dompyong Kecamatan Bendungan Kabupaten Trenggalek Trenggalek
Desa Wisata Senden Goa Ngerit,-8.2036608537675,111.68077692174,Desa Senden kecamatan Kampak Kabupaten Trenggalek Trenggalek
Banyu Nget,-8.2536703337136,111.68322291472,Desa Dukuh Kecamatan Watulimo Kabupaten Trenggalek Trenggalek
Desa Wisata Masaran Blado,-8.3148454918826,111.57291210782,Desa Masaran Kecamatan Munjungan Kabupaten Trenggalek Trenggalek
Desa Kendalrejo,-8.1099360597551,111.78626217491,"Ngrandu, Talun, Kendalrejo, Kec. Durenan, Kabupaten Trenggalek, Jawa Timur 66381 Trenggalek"
Wonoasri,-8.2790472832272,111.63596628073,"Area Hutan, Bangun, Kec. Munjungan, Kabupaten Trenggalek, Jawa Timur 66365 Trenggalek"
Desa Nglebo,-8.1115764233041,111.60033278144,"Jl. AKP ROESTAMAJI RT.06/RW.02 Dsn. Tawang, Area Gn., Nglebo, Kec. Suruh, Kabupaten Trenggalek, Jawa Timur 66360 Trenggalek"
Kampung Kelinci,-8.1126916306171,111.82982060603,"RT 37 RW 10, Lotekol, Malasan, Kec. Durenan, Kabupaten Trenggalek, Jawa Timur 66381 Trenggalek"
Air Terjun Nglirip,-6.9682420948459,111.79397585445,Kabupaten Tuban Tuban
Banyulangse,-6.919351821036,112.00329022657,Kabupaten Tuban Tuban
Goa Akbar,-6.9051648826138,112.05999748126,Kabupaten Tuban Tuban
Goa Ngerong,-7.6004673170647,112.70078270836,Kabupaten Tuban Tuban
Goa Putri Asih,-6.9781582671797,111.8377982666,Kabupaten Tuban Tuban
Pantai Boom,-6.8924047952343,112.06589305761,Kabupaten Tuban Tuban
Pantai Cemara,-6.8488998697541,112.02001951646,Kabupaten Tuban Tuban
Pantai Kelapa,-6.8945936325644,112.08870252729,Kabupaten Tuban Tuban
Pantai Sowan,-6.7591506546225,111.69889050205,Kabupaten Tuban Tuban
Tebing Pelangi,-6.8918511047093,111.94500117558,Kabupaten Tuban Tuban
Tuban Mangrove Centre,-6.8424415757571,112.01480070742,Kabupaten Tuban Tuban
TWT,-6.8563862634795,112.02926686807,Kabupaten Tuban Tuban
Wisata Kali Pelang,-6.8685028501287,111.97405425228,Kabupaten Tuban Tuban
Wisata Tingkis (Batu Van Tuban),-6.9728367504776,111.80981684464,Kabupaten Tuban Tuban
Wana Wisata Prataan,-7.0359837417718,111.8560905592,Kabupaten Tuban Tuban
Pemandian Bektiharjo,-6.9576411109924,112.03738478293,Kabupaten Tuban Tuban
Pemandian Nganget,-7.0022145586168,111.80002471841,Kabupaten Tuban Tuban
Sendang Asmoro,-7.0016015413136,112.07103004283,Kabupaten Tuban Tuban
Sumberarum Park,-6.8781746204016,111.89534834004,Kabupaten Tuban Tuban
Makam Asmoroqondi,-6.9052715702207,112.12777692322,Kabupaten Tuban Tuban
Makam Bejagung Kidul,-6.9179155726711,112.05914359794,Kabupaten Tuban Tuban
Makam Bejagung Lor,-6.9144008196114,112.06150292853,Kabupaten Tuban Tuban
Makam Sunan Bonang,-6.8949504493836,112.06321077806,Kabupaten Tuban Tuban
Museum Kambang Putih,-6.8961327360282,112.06422999446,Kabupaten Tuban Tuban
Desa Wisata Religi Bejagung,-6.9173010437077,112.06129835394,Kabupaten Tuban Tuban
Desa Wisata Margorejo,-6.894824653728,111.8614072844,Kabupaten Tuban Tuban
Desa Wisata Guwo Terus,-6.9538518864645,111.82379686429,Kabupaten Tuban Tuban
pantai pacar,-8.307119,112.0235,Kabupaten Tulungagung Tulungagung
Gunung Budek,-8.1368308909751,111.90702323581,"Tanggung, Kecamatan Campurdarat, Kabupaten Tulungagung Tulungagung"
Jurang Senggani,-7.903022,111.818061,Kabupaten Tulungagung Tulungagung
Pantai Gemah,-8.254971,111.789208,Ds. keboireng Kec. Besuki Kabupaten. Tulungagung Tulungagung
Pantai Kedung Tumpang,-8.302922,112.016203,Ds. Pucanglaban Kec. Pucanglaban Kabupaten. Tulungagung Tulungagung
Pantai Klatak,-8.254616,111.788789,Ds. Kebo Ireng Kec. Besuki Kabupaten. Tulungagung Tulungagung
Pantai Popoh,-8.262891,111.803797,Ds. Besole kec. Besuki Kabupaten. Tulungagung Tulungagung
Pantai Sanggar,-8.296698,111.910495,Ds. Jengglungharjo Kec. Tanggunggunung Kabupaten Tulungagung Tulungagung
Pantai Sine,-8.280696,111.976281,"Desa kalibatur, kecamatan kalidawir, kabupaten Tulungagung Tulungagung"
Waduk Wonorejo,-8.017982,111.807469,Ds. Mulyosari kec. apgerwojo Kabupaten. Tulungagung Tulungagung
Cowindo,-7.939737,111.829944,Kabupaten Tulungagung Tulungagung
Kampung Susu Dinasty,-8.078933,111.811142,"Jalan Kanigoro, Bakalan, Sidem, Kec. Gondang, Kabupaten Tulungagung Tulungagung"
Nangkula Park,-8.113718,111.881528,Ds. Kendal Bulur Kec. Boyolangu Kabupaten Tulungagung Tulungagung
Ori Green,-7.953384,111.836772,Ds. Sendang Kec. Sendang Kabupaten Tulungagung Tulungagung
Tugu Park,-7.969335,111.858353,Ds. Tugu Kec. Sendang Kabupaten. Tulungagung Tulungagung
Pantai Bletok,-7.7300858,113.7893653,"Jalan Raya, Pasir Putih, Mlandingan, Situbondo Regency, East Java 68353 Situbondo"
Nusantara Edupark,-7.6588904,111.5585359,"Jl. Raya Dungus, Kelurahan Munggut, Mojopurno, Kec. Wungu, Kota Madiun, Jawa Timur 63181 Madiun"
Edufarm Kampung Tani Panjalin,-6.9007605,113.4081443,Sokobanah Daya Kecamatan Sokobanah Sampang
Taman Wisata Lembah Wilis,-7.700786,111.6262003,"Jl. Raya Kresek, Brojo, Kresek, Kec. Wungu, Kabupaten Madiun, Jawa Timur 63181 Madiun"
Rumah Coklat,-7.72699325405,111.65076812248,"Jl. Raya Kresek, Kembang Kuning, Bolo, Kec. Kare, Kabupaten Madiun, Jawa Timur 63182 Madiun"
Sumur Amber,-8.0842945,112.104346,"Ds. Kandangan Kec. Srengat, Kabupaten Blitar Blitar"
Kampung Gerabah,-8.1469185,112.1298742,"Ds. Plumpungrejo Kec. Kademangan, Kabupaten Blitar Blitar"
Kampong Milon Napote,-6.9122585,113.3921557,"Ds. maregit, desa bira timur\r\nkecamatan sokobanah\r\nkab. sampang Sampang"
Gedung Harmonie,-7.6582080281293,112.91135253818,Jl. Pahlawan kota Pasuruan Pasuruan
Dynasty water Park,-7.1409159430778,112.61529303142,"Jl. Rantau I No. 27 - 29, Wonorejo Gresik Gresik"
Wisata Bajak Laut,-7.0413867230381,112.55192746025,"Area Sawah/Kebun, Masangan, Bungah, Gresik Gresik"
kolam Renang Malindo,-6.966146845332,112.42397320258,"Jl. Raya Lowayu, RT.29/RW.08, Lowayu, Kec. Dukun Gresik Gresik"
Navara Water Park,-7.959956977237,113.85441064064,"Krajan, Pengarang, Kec. Jambesari Darus Sholah, Kabupaten Bondowoso Bondowoso"
yyyy,-7.9050526217246,113.82179260254,Kabupaten Bondowoso Bondowoso
Twin Lake Kemangi,-7.0254142292995,112.56532883816,Desa Kemangi Kecamatan Bungah Gresik
Wisata Edukasi Urban Farming (Kampung Kreasi),-7.1640785440724,112.65781813816,"Jl. Kramat Langon  Gg. IV B, Sumberrejo, Sidokumpul, Kec. Gresik Gresik"
Mangrove Sukorejo Kali Lamong,-7.1945133286232,112.63477730988,"jl. Mangga, Napes, Gulomantung, Kec. Kebomas, Gresik"
Mangrove Karang Kiring,-7.1887533620755,112.66575660038,"Jl. Kapten Darmo Sugondo, Karang Kering, Karangkering, Kec. Kebomas Gresik"
Bale Pesusukan,-7.1477600306298,112.65143688479,"Karangturi, Lumpur, Gresik Gresik"
Bale Keling,-7.1475387856378,112.65548459583,"Jl. Martadinata No.9, Pekelingan, Kemuteran, Kec. Gresik, Gresik"
Kolam Renang Sumberagung Grogol,-7.7389583,111.97642777778,Desa Sonorejo Kec. Grogol Kediri
Kolam Renang Tirta Asri Pare,-7.7660056,112.15610555556,Jl. Sukarno Hatta 71 B Pare Kediri
Kampung Lele,-7.9209444,111.98251111111,Desa Tales Kec. Ngadiluwih Kediri
Dadapan One Stop Holiday,-7.9186972,112.13057777778,Desa Tawang Kec. Wates Kediri
Marwah Tirta &amp; Resto 1,-7.7208705,112.1745948,Desa Sidowarek Kec. Plemahan Kediri
Marwah Tirta &amp; Resto 2,-7.7495417,112.17281666667,"JL.Langkat, Desa Pelem Kec. Pare Kediri"
Marwah Tirta &amp; Resto 3,-7.7806556,112.122925,"Desa Adan-Adan, Kec. Gurah Kediri"
Kota Mungil,-7.9263444,112.21579444444,"Desa Sugihwaras, Kec. Ngancar Kediri"
Istana Jamur,-7.9210056,112.22801388889,"Desa Sugihwaras, Kec. Ngancar Kediri"
Bukit Goa Naga,-7.9559917,112.22331111111,"Desa Sempu, Kec. Ngancar Kediri"
Wisata Dunia Candy,-7.9004889,112.1086,"Desa Wonorejo, Kec. Wates Kediri"
Makam Pragulo Pati,-7.8079778,111.88556666667,Desa Parang Kec. Banyakan Kediri
Situs Adipati Panjer,-7.8533194,112.11776944444,Desa Panjer Kec. Plosoklaten Kediri
Situs Watu Gajah,-7.8087778,112.20110833333,Desa Gadungan Kec. Puncu Kediri
Situs Watu Dakon 1,-7.6543139,112.17903611111,"Desa Badas, Kec. Badas Kediri"
Situs Watu Dakon 2,-7.6555806,112.18441666667,"Desa Badas, Kec. Badas Kediri"
Petilasan Dewi Sekartaji,-7.8529694,112.07629444444,Desa Janti Kec. Wates Kediri
Makam Syech Abdul Mursyad,-7.7657806,111.99471388889,Desa Grogol Kec. Grogol Kediri
Makam Auliya (Gus Mik),-7.9552111,111.92162222222,Desa Ngadi Kec. Mojo Kediri
Makam Tan Malaka (WBTB),-7.8503167,111.92113888889,Desa Selopanggung Kec. Semen Kediri
Makam Syech Ihsan Jampes,-7.7798361,112.01353888889,Desa Putih Kec. Gampengrejo Kediri
Makam Syech Zainal Abidin,-7.7895278,112.05749722222,Desa Toyoresmi Kec. Ngasem Kediri
Makam Kyai Doko / Prabu Anom Doko,-7.8146083,112.045475,Desa Doko Kec. Ngasem Kediri
Benteng Pendem Van Den Bosch,-7.3899540620488,111.45467554012,Kelurahan Pelem Kec.Ngawi kab.Ngawi Ngawi
Taman Langit,-7.8542783742971,112.49795343629,"Taman Langit Gunung Banyak, Jalan Gunung Banyak, Gunungsari, Batu City, East Java Batu"
Taman Langit,-7.854342143413,112.4979856228,"Taman Langit Gunung Banyak, Jalan Gunung Banyak, Gunungsari, Batu City, East Java Batu"
wisata taman langit,-7.8542677461102,112.49797489396,"Taman Langit Gunung Banyak, Jalan Gunung Banyak, Gunungsari, Batu City, East Java Batu"
Lapak Bumi Semendung,-7.6285493367351,111.53723951879,"Jl. Bhakti Wijaya No. 9, Klegen, Kec. Kartoharjo, Kota Madiun Madiun"
Wisata Buatan Batu Jati Mas,-7.859583265103,112.54454429581,"Jl. Mardian, Bumiaji, Kec.Bumiaji, Kota Batu Jawa Timur 65331 Batu"
Wana Wisata Siti Sundari,-8.059503830056,113.04071824567,"Dusun karang anyar Rt 03 RW 04, Desa Burno, Kec. Senduro Lumajang"
Goatzilla Farm,-8.0697992189178,113.07257080796,"Dsn. Wonorejo RT 01 RW  06, Desa Kandangtepus, Kec. Senduro Lumajang"
Situs Selo Gending,-8.0297314865278,113.06658495167,"Dusun Krajan RT 05 RW 02, Desa Kandangan, Kec. Senduro Lumajang"
Museum Singhasari,-7.8810489206391,112.64153329742,"Krajan, Klampok, Kec. Singosari, Kabupaten Malang, Jawa Timur 65153 Malang"
Benteng Pendem Van Den Bosch,-7.3900391797997,111.45481501452,Kelurahan Pelem Kecamatan Ngawi Kabupaten Ngawi Ngawi
WISATA DESA BELURON BENGAWAN SOLO (BBS),-7.0140210706412,112.45000445453,"Beluron Bengawan Solo, Jl. Raya Desa Baron, Baron, Kec. Dukun, Kab. Gresik Gresik"
Kolam Renang Ocean Kids,-6.9838627091485,112.49421497932,Jl. Raya Babakbawo RT 12 RW 05 Desa Sambogunung Dukun Gresik Gresik
Museum kampoeng cak Soen,-7.460222258261,111.41842999964,Desa Tempuran Kecamatan Paron Kabupaten Ngawi Ngawi
Lapak Mbah Remul,-7.614113101831,111.54197392448,"Jl. Sari Mulya, Rejomulo, Kec. Kartoharjo, Kota Madiun Madiun"
Lapak Pesona,-7.6158817881668,111.52145580019,"Jl. Candi Sewu, Madiun Lor, Kec. manguharjo, Kota Madiun Madiun"
Lapak Taman Obor,-7.6205501744692,111.53308316427,"Jl. Mayang Kembar No. 11, Oro-Oro Ombo, Kec. Kartoharjo, Kota Madiun Madiun"
Lapak Donopuran,-7.6410120632432,111.52319493766,"Jl. Asahan, Taman, Kec. Taman, Kota Madiun Madiun"
Lapak Kembul Sari,-7.6134788715354,111.53424075585,"Jl. Bela Negara, Sukosari, Kec. Kartoharjo Madiun"
air Terjun Bongok,-6.9729301108981,111.87632570209,"Dusun Keroan, Desa Jetak, Kecamatan Montong Tuban"
Lapak Patih Sidodadi Kel. Patihan,-7.6071002622109,111.53454666321,"Jl. Basuki Rahmat, Tawangrejo, Kec. Kartoharjo, Kota Madiun Madiun"
lapak Sonokeling,-7.6300090835984,111.51333446891,"Jl. Mayjend Sungkono No. 364, Pangongan, Kec. Manguharjo, Kota Madiun Madiun"
Water Boom Marbagong (MBG),-7.8026598724786,113.30488835422,Kabupaten Probolinggo Probolinggo
Pantai Panduri,-6.7734790108791,111.93251204831,"Syech Subakir Laut Jawa, Awar Awar, Tasikharjo, Kec. Jenu, Kabupaten Tuban, Jawa Timur 62352 Tuban"
Pertapaan Karmel,-8.0722613098159,112.77164005138,"Desa Ngadireso RT 02 / RW 01, Ponoco Kusumo, Tumpang, Ngadireso, Kec. Poncokusumo, Kabupaten Malang, Jawa Timur 65156 Malang"
Museum Panji,-8.0025756949882,112.72997468208,"Jl. Raya Bangilan No.I, Ringin Anom, Slamet, Kec. Tumpang, Kabupaten Malang, Jawa Timur 65156 Malang"
Sae L'Sima,-8.0460927254263,112.52214581091,"Jl. Kamboja, Area Sawah/Kebun, Maguan, Kec. Ngajum, Kabupaten Malang, Jawa Timur 65164 Malang"
Claket Adventure Park,-7.6757567058405,112.55832058506,"Jalan Raya Claket-Trawas KM. 03, Dusun Sembong, Desa Claket Mojokerto"
Maha Vihara Majapahit / Budha Tidur,-7.5555380588563,112.37012579484,"Desa Bejijong, Towulan Mojokerto"
Puthuk Gragal,-7.6757567058405,112.55832058506,"Libis, Cembor, Desa Pacet Mojokerto"
Tirta Anandiri,-7.4947420363025,112.45473301659,"Jl. Raya Jabon No.112A, Jabon,MOJOANYAR Mojokerto"
Joglo Park,-7.6387030219792,112.53453481019,"Jalan Pacet No.KM.3, Dusun Randegan, Warugunung Mojokerto"
Waterland,-7.5151846877257,112.42315541019,"Jl. By Pass Mojokerto No.Km. 54, Kedungpring, Jampirogo,SOOKO Mojokerto"
Loka Wiyata Surya (Tahura),-7.6879355961655,112.56042631845,Desa Pacet Mojokerto
Balekambang,-7.6252152115364,112.50631053717,"Slawe, Padi, Gondang, GONDANG Mojokerto"
Wisata Panorama Petung Sewu (WPPS),-7.7085233524777,112.52923002553,Desa Pacet Mojokerto
Ladang Anggrek,-7.5293518769826,112.56892096786,"Jl. Raden Patah No.Desa, Adi Sono, Lebaksono,PUNGGING Mojokerto"
Intan Abatani,-7.3292847803092,112.42521200494,"Jl. Mayjen Sungkono, Sidokerto, Pulorejo,DAWAR BLANDONG Mojokerto"
Air Terjun Watulampang,-7.7289802925731,112.52734044088,Desa Pacet Mojokerto
Bukit Kayoe Putih,-7.3894227589802,112.43158955622,"Desa jetis,JETIS Mojokerto"
Air Terjun Watuondo,-7.7294756761922,112.53020414444,Desa Pacet Mojokerto
Candi Brahu,-7.5427397745723,112.3744739832,"Ds. Bejijong ,TROWULAN Mojokerto"
Pendakian Watujengger,-7.6957911799932,112.43501912238,Jatirejo Mojokerto
Candi Wringinlawang,-7.5418032101321,112.39110362553,"Ds. Jatipasar,TROWULAN Mojokerto"
Candi Tikus,-7.571605559341,112.40357461204,"Ds. Temon,TROWULAN Mojokerto"
Pacet Mini Park,-7.6236862505076,112.5326849967,"Jl. Pacet No.Km. 55, Dusun Randegan, Warugunung Mojokerto"
Parimas,-7.6139170260146,112.53210682394,"Jl. Mojosari - Pacet No.Km.10, Dusun Wonosari, Warugunung Mojokerto"
Candi Bajangratu,-7.5666441892286,112.39879961525,"Ds. Temon,TROWULAN Mojokerto"
Makam Troloyo,-7.5758904408816,112.38045480648,"Ds.  Sentonorejo,TROWULAN Mojokerto"
Qoem - Qoem,-7.6855523102463,112.54822909485,Desa Padusan Mojokerto
Petirtaan Jolotundo,-7.6090162728898,112.59543465437,"Ds. Seloliman,TRAWAS Mojokerto"
Bernah De Valley,-7.6524209288047,112.55884566786,"Jl. Raya Tirtowening, Paras, Kembangbelor Mojokerto"
Ubalan Waterpark,-7.6715957711681,112.53958303903,"Ds. Pacet,PACET Mojokerto"
Pemandian Air Panas Padusan,-7.6844683049925,112.54917795537,"Ds. Padusan,PACET Mojokerto"
Wet Sendi,-7.6990025342641,112.53237463141,Desa Pacet Mojokerto
Air Terjun Dlundung,-7.6816753759515,112.59376868135,"Ds. Ketapanrame,TRAWAS Mojokerto"
Sumber Gempong,-7.6666505663841,112.61160991204,"Sukorame, Desa Ketapanrame Mojokerto"
Sasana Krida,-7.6277689148649,112.57500629484,"Tumpul Jati, Desa Jatijejer,TRAWAS Mojokerto"
Taman Ghanjaran,-7.6662522182058,112.60473623194,"Sukorame, Desa Ketapanrame Mojokerto"
Padhepokan Seni Mangun Dharma,-8.0143763830199,112.76522221551,"Jl. Mangun Darmo, Sumber Sari, Tulusbesar, Kec. Tumpang, Kabupaten Malang, Jawa Timur 65156 Malang"
Candi Gunung Telih,-7.8093291344319,112.60380729742,"Kreweh, Gunungrejo, Kec. Singosari, Kabupaten Malang, Jawa Timur 65153 Malang"
Situs Watu Gong,-7.8461715779386,112.48272004634,"Desa Pandesari, Kecamatan Pujon, Kabupaten Malang, Jawa Timur 65391 Malang"
Wisata Terpadu Bhurunan Murtajih,-7.1675761,113.5035002,"Jl. Balai Desa Murtajih, Murtajih, Kec. Pademawu, Kabupaten Pamekasan, Jawa Timur 69323 Pamekasan"
Padepokan Seni Asmorobangun,-8.073027687743,112.58912896859,"Jl. Prajurit Slamet, Kedungmonggo, Karangpandan, Kec. Pakisaji, Kabupaten Malang, Jawa Timur 65162 Malang"
Karaeng Galesong,-7.8524259155983,112.37319269742,"Jl. Indragiri, Kebonsari, Sumberagung, Kec. Ngantang, Kabupaten Malang, Jawa Timur 65392 Malang"
masjid Asy-Syuhada,-8.062406490511,112.53546211681,"JL SAPU JAGAD, Maguan, Kecamatan Ngajum, Kabupaten Malang, Jawa Timur 65164 Malang"
GKJW Peniwen,-8.0954961820225,112.47282721038,"Jalan Raya Peniwen No. 15 Desa Peniwen, Kecamatan Kromengan, Kabupaten Malang 65165 Malang"
Monumen Peniwen Affair,-8.107947330438,112.4700734,"Kertorejo, Peniwen, Kec. Kromengan, Kabupaten Malang, Jawa Timur 65165 Malang"
Candi Sapto,-7.8121024504591,112.32542343927,"Banturejo, Bayem, Kec. Kasembon, Kabupaten Malang, Jawa Timur 65393 Malang"
Wisata Religi Gunung Bathok,-7.9322980007576,112.94884140925,"Area Gunung Bromo, Kabupaten Malang, Jawa Timur Malang"
Wisata Ritual Sendang Kamulyan,-8.3869547682489,112.46138873011,"Sendang Kamulyan, Banjarejo, Kec. Donomulyo, Kabupaten Malang, Jawa Timur Malang"
Religi Pesarean Syech Abdul Jalil,-8.3918903831801,112.56039365767,"Area Sawah/Kebun, Srigonco, Kec. Bantur, Kabupaten Malang, Jawa Timur 65179 Malang"
Hutan Pinus Winongan,-8.1517206549013,112.76467108208,"Dusun Garotan, Bringin, Wajak, Kabupaten Malang, Jawa Timur 65173 Malang"
Alas pakis,-8.0028311951246,112.51829802626,"Jl. Raya Kenongo, Ngemplak, Sumbersuko, Kec. Wagir, Kabupaten Malang, Jawa Timur 65158 Malang"
Pantai Wedi Awu,-8.3761804950939,112.84653026404,"Dusun Balearjo, Desa Purwodadi, Kecamatan Tirtoyudo, Kabupaten Malang, Jawa Timur 65182 Malang"
Pantai Bolu-bolu,-8.3847239330695,112.8154373608,"Dusun Lenggoksono, Desa Purwodadi, Kecamatan Tirtoyudo, Kabupaten Malang, Jawa Timur 65182 Malang"
Pantai Sipelot,-8.3803269378319,112.89632320734,"Desa Pujiharjo, Kecamatan Tirtoyudo, Kabupaten Malang, Jawa Timur Malang"
Discovery Of Forest,-6.8624227450408,111.62651566583,Kecamatan Jatirogo Tuban
Sendang Lanjar Maibit,-7.0684218657176,111.97910741583,Kecamatan Rengel Tuban
Gunung Dingklik Ngimbang,-6.9605378557815,112.14239826905,"Desa Ngimbang, Kecamatan Palang Tuban"
Wisata Air Hangat Mbeji,-6.9509779983963,111.70038821875,"Desa Kedungjambangan, Kecamatan Bangilan Tuban"
Agro Park Klumpit,-7.0561636515524,111.91816815443,"Dusun Bentaor RT 01 / RW 09, Desa Klumpit, Kecamatan Soko Tuban"
Kandangan Park,-7.0782454890945,111.82323737535,"Desa Kumpulrejo RT 03 RW 15 , Kecamatan Parengan Tuban"
Pantai Gatra,-8.4407154938449,112.66966303013,"Desa Tambakrejo, Kecamatan Sumbermanjing Wetan, Kabupaten Malang, Jawa Timur Malang"
Desa Telaga Biru,-7.364586956231,112.7235771074,"Desa Telaga Biru, Kec. Tanjung Bumi, Kab. Bangkalan Bangkalan"
Pantai Kali Apus/Pringapus,-8.4156230517606,112.74397679666,"Desa Tambakasri, Kecamatan Sumbermanjing Wetan, Malang, Kabupaten Malang, Jawa Timur 65176 Malang"
Pantai Teluk Asmara,-8.4429332667626,112.6654971911,"Desa Sitiarjo, Kecamatan Sumbermanjing Wetan, Kabupaten Malang, Jawa Timur 65176 Malang"
Pantai Tambak Asri,-8.3974784800404,112.8006891631,"Desa Sidoasri, Kecamatan Sumbermanjing Wetan, Kabupaten Malang, Jawa Timur Malang"
Pantai Perawan Sidoasri/Tambak Asri,-8.3832673549943,112.78025685062,"Desa Sidoasri, Kecamatan Sumbermanjing Wetan, Kabupaten Malang, Jawa Timur, 65176 Malang"
Hutan Pinus Bendosari,-7.8690047360152,112.43549731604,"Jl. Moch Said, Tretes, Bendosari, Kec. Pujon, Kabupaten Malang, Jawa Timur 65391 Malang"
Gunung Bromo,-7.9410365471597,112.95808920939,"Jl. Bromo Semeru, Dusun Jarak Ijo, Ngadas, Kec. Poncokusumo, Kabupaten Malang, Jawa Timur 65157 Malang"
Coban Trisula,-7.9992151276401,112.86936251585,"Dusun Ngadas, Ngadas, Kec. Poncokusumo, Kabupaten Malang, Jawa Timur 65157 Malang"
Coban Raksasa,-7.9953631011982,112.89836598295,"Dusun Jarak Ijo, Ngadas, Kec. Poncokusumo, Kabupaten Malang, Jawa Timur 65157 Malang"
Lembah Kera,-8.1996886092218,112.53517854386,"Dempok, Pagak, Area Hutan Jati, Gampingan, Kec. Pagak, Kabupaten Malang, Jawa Timur 65168 Malang"
Mata Air Umbulan/Umbulrejo,-8.0385190885514,112.54852972293,"Jl. Maguan, Ubalan, Maguan, Kec. Ngajum, Kabupaten Malang, Jawa Timur 65164 Malang"
Mata Air Sumber Manggis,-8.0166927180871,112.50783103312,"Sumbersari, Wonosari, Kec. Wonosari, Kabupaten Malang, Jawa Timur 65164 Malang"
Mata Air Sumber Urip,-7.9164901232114,112.62537002223,"Jl. Kawi Indah No.39, Sumbersari, Sumbersari, Balesari, Kec. Wonosari, Kabupaten Malang, Jawa Timur 65164 Malang"
Mata Air Sumber Jodho,-7.9483671706217,112.86143451333,"Dusun Krajan Bendolawang, Ngadirejo, Kec. Jabung, Kabupaten Malang, Jawa Timur 65155 Malang"
Sumber Air Krabyakan,-7.8426308649398,112.72102376797,"Krajan, Sumberngepoh, Kec. Lawang, Kabupaten Malang, Jawa Timur 65216 Malang"
Coban Supit Urang,-7.8631914846306,112.73396669681,"Dusun Gading, Srigading, Kec. Lawang, Kabupaten Malang, Jawa Timur 65216 Malang"
Gunung Mujur,-7.8195634486513,112.60825699226,"Borogragal, Donowarih, Kec. Karang Ploso, Kabupaten Malang, Jawa Timur 65152 Malang"
sumber Nyolo,-7.8791012388554,112.62229469936,"wisata nyolo, Langlang I, Glugur Kota, Kec. Karang Ploso, Kabupaten Malang, Jawa Timur 65111 Malang"
Coban Singo/Arema,-7.9886505988573,112.83142488535,"Dusun Krajan Bendolawang, Ngadirejo, Kec. Jabung, Kabupaten Malang, Jawa Timur 65155 Malang"
Coban Jodo,-7.985303970386,112.83377631922,"Bendolawang, Dusun Krajan Bendolaw, Ngadirejo, Kec. Jabung, Kabupaten Malang, Jawa Timur 65156 Malang"
Coban Jidor,-8.0001800868114,112.80815699526,"Dusun Krajan Bendolawang, Ngadirejo, Kec. Jabung, Kabupaten Malang, Jawa Timur 65156 Malang"
Coban Barnawi,-7.9747921981724,112.81246396691,"Desa Pandan Rejo Cincing, Dusun Krajan, Sukopuro, Kec. Jabung, Kabupaten Malang, Jawa Timur 65155 Malang"
Coban Siuk,-7.9569210834112,112.82108457001,"Dusun Krajan, Taji, Kec. Jabung, Kabupaten Malang, Jawa Timur 65155 Malang"
Pantai Jolangkung,-8.4280294840889,112.62879165874,"Desa Gajahrejo, Kecamatan Gedangan, Kabupaten Malang, Jawa Timur 65178 Malang"
Pantai Pasir Besi,-8.3997143217129,112.5219348625,"Area Sawah/Kebun, Sumberbening, Kec. Bantur, Kabupaten Malang, Jawa Timur 65179 Malang"
Gua Sengik,-8.3794721701058,112.39637568091,"Desa Mentaraman, Donomulyo, Kabupaten Malang, Jawa Timur 65167 Malang"
Pantai Kedung Celeng,-8.3952779049046,112.44961856777,"Jalan Raya Banjarejo, Desa Kedungsalam, Kec. Donomulyo, Kabupaten Malang, Jawa Timur 65167 Malang"
Pantai Pulodoro,-8.3955405007385,112.44629448246,"Desa Kedungsalam, Kecamatan Donomulyo, Kabupaten Malang, Jawa Timur 65167 Malang"
Pantai Seling ombo,-8.3956354837776,112.45734990902,"Sendang Kamulyan, Banjarejo, Kec. Donomulyo, Kabupaten Malang, Jawa Timur 65167 Malang"
Pantai Kondang Iwak,-8.3955057363573,112.48039697415,"Desa Tulungrejo, Kecamatan Donomulyo, Kabupaten Malang, Jawa Timur Malang"
Pantai Kondang Bandung,-8.3714504053017,112.38888734603,"Sumberejo,  Purwodadi, Kecamatan Donomulyo, Kabupaten Malang, Jawa Timur Malang"
Pantai Nglurung,-8.3773828530879,112.40826580017,"Gondang Rejo, Kedungsalam, Kec. Donomulyo, Kabupaten Malang, Jawa Timur 65167 Malang"
Goa Payung,-8.2629537211914,112.80231659577,"Panggung Sari, Desa Baturetno, Kec. Dampit, Kabupaten Malang, Jawa Timur 65181 Malang"
Umbulan (Pemandian),-8.1776588858773,112.76672119576,"Dusun Umbulrejo Ubalan, Area Sawah/Kebun, Desa Pamotan, Kec. Dampit, Kabupaten Malang, Jawa Timur 65181 Malang"
Pantai Teluk Bidadari,-8.4032804119864,112.50545409496,"Dusun Sumber Rejo, Desa Bandungrejo, Kec. Bantur, Kabupaten Malang, Jawa Timur Malang"
Pantai Mbehi,-8.402120813557,112.50431944592,"Dusun Sumber Rejo, Desa Bandungrejo, Kec. Bantur, Kabupaten Malang, Jawa Timur 65179 Malang"
Pantai Ndaliputih/Dali Putih,-8.4025152691813,112.52313812855,"Desa Sumberbening, Kec. Bantur, Kabupaten Malang, Jawa Timur 65179 Malang"
Pantai Banyu Meneng,-8.3962469158586,112.51499913655,"Dusun Kandangmerak, Desa Sumberbening, Kec. Bantur, Kabupaten Malang, Jawa Timur 65179 Malang"
Pantai Taman Ayu,-8.4073634011286,112.57301120391,"Desa Tumpakrejo, Kec. Gedangan, Kab. Malang, Jawa Timur Malang"
Bukit Bundu,-8.2672921614578,112.90411924413,"Area Sawah/Kebun, Purwoharjo, Kec. Ampelgading, Kabupaten Malang, Jawa Timur 65183 Malang"
Pantai Licin,-8.3634383883451,112.94620304162,"Dusun Lebaksari Rt 48 Rw 21, Desa Lebakharjo, Kec. Ampelgading, Kabupaten Malang, Jawa Timur 65183 Malang"
KOLAM RENANG HANIF TIRTO PELANGI,-7.5994253733873,111.44482922496,"Jl. Notoyudo No.254, Sumber, Kraton, Kec. Maospati, Kabupaten Magetan, Jawa Timur 63392 Magetan"
WMS Berung Ngambeng Spot Klobur,-7.1896148014363,113.08719669229,Desa Klobur Kecamatan Sreseh Kabupaten Sampang Sampang
Wisata Petik Jeruk Bedengan,-7.9390477218722,112.55389541598,"Jl. Watu Gede, RT.01/RW.01, Selorejo, Kec. Dau, Kabupaten Malang, Jawa Timur 65151 Malang"
kampung Durian,-8.1129322,113.5884876,"Pakis, Kec. Panti, Kabupaten Jember, Jawa Timur 68153 area hutan Jember"
Situs Duplang,-8.088684,113.7388061,"Duplang, Kamal, Kec. Arjasa, Kabupaten Jember, Jawa Timur 68191 Jember"
KRAHIGA,-7.0408864790119,112.70676876136,"Jl. Dr. Sortomo, Markolak Timur, Kramat, Kec. Bangkalan, Kabupaten Bangkalan, Jawa Timur 69119 Bangkalan"
Agro Wisata Bukit Rayud,-8.348715,114.220621,"Rayud, Parijatah Kulon, Kec. Srono, Kabupaten Banyuwangi Banyuwangi"
BIN Cigar,-8.1949845,113.6383406,"Jl. Brawijaya No.3, Krajan, Jubung, Kec. Sukorambi, Kabupaten Jember, Jawa Timur 68151 Jember"
Pantai Payangan,-8.4363659,113.5606995,"Jl. Sidomulyo, Sido Mulyo, Sumberrejo, Kec. Ambulu, Kabupaten Jember, Jawa Timur 68172 Jember"
Museum Tembakau,-8.1589279,113.7119788,"68124, Jl. Kalimantan No.1, Krajan Timur, Sumbersari, Kec. Sumbersari, Kabupaten Jember, Jawa Timur 68121 Jember"
Air Terjun Antrokan Manggisan,-8.1346908,113.4848934,"VF8P+4XH, Kali Tengah, Manggisan, Kec. Tanggul, Kabupaten Jember, Jawa Timur 68155 Jember"
Pantai Rowo Cangak,-8.4478587,113.6236253,"HJ2G+V92, Kebonsari, Sabrang, Kec. Ambulu, Kabupaten Jember, Jawa Timur 68172 Jember"
Puncak SJ 88,-8.0617486,113.7268632,"WPQH+7QW, Gujuran B, Sucopangepok, Kec. Jelbuk, Kabupaten Jember, Jawa Timur 68192 Jember"
Jelajah Kampung Lawas Kebungson (Heart Of Bandar Grisse),-7.1529229929098,112.65805656489,Jl. KH. Kholil No. 20 Kelurahan Kebungson Kecamatan Gresik Kabupaten Gresik Kecamatan Gresik Kabupaten Gresik Provinsi Jawa Timur Kode Pos 61115 Gresik
Wisata Telaga Pelemwatu,-7.2647574610736,112.58189187155,Jl. Raya Pratama Indah Ruko No 7 Desa Pelemwatu Kecamatan Menganti Kabupaten Gresik Kode Pos 61554 Gresik
Desa Wisata Masmul Mulyoagung,-7.9230642167903,112.58274684836,"Desa Mulyoagung, Kecamatan Dau, Kabupaten Malang, Jawa Timur Malang"
Ekowisata Magrove Superberu Bawean,-5.84626957958,112.70660753806,Desa Daun Kecamatan Sangkapura Gresik
Air Terjun 7 Bidadari,-8.0769565,113.9376406,"Gardu Timur, Rowosari, Kec. Sumberjambe, Kabupaten Jember, Jawa Timur 68195 Jember"
Candi Deres,-8.2990574,113.4163885,"Krajan, Purwosari, Kec. Gumukmas, Kabupaten Jember, Jawa Timur 68165 Jember"
Pusat Penelitian Kopi dan Kakao,-8.257587,113.4682821,"Kaliwining, Gebang, Nogosari, Rambipuji, Jember Regency, East Java 68175 Jember"
Pantai Paseban,-8.3219012,113.3077338,"Paseban, Kec. Kencong, Kabupaten Jember, Jawa Timur Jember"
Taman Wiyata Sampang,-7.19066,113.25375,Jl. Diponegoro Sampang
UD Sumber Mutiara ( oleh-oleh),-7.20561,113.2545,Jl Mutiara 66 Sampang Sampang
WAMAS (WISATA ARSIP MASYARAKAT SAMPANG),-7.18788,113.24321,Jl. Wakhid Hasyim 147 Sampang Sampang
NUSANTARA EDUPARK,-7.6586086144582,111.56069240898,"Jl. Raya Dungus Kelurahan Mojopurno, Kecamatan Wungu, Kabupaten Madiun Madiun"
Museum Zoologi Frater Vianney,-7.9587104617995,112.59636962401,"Jl. Mahameru VE 7 Tidar No.10, Doro, Karangwidoro, Kec. Dau, Kota Malang, Jawa Timur 65146 Malang"
P-WEC (Petungsewu Wildlife Education Center),-7.9520028225455,112.54350278769,"Jl. Margasatwa 1, Desa Petungsewu, Kec. Dau, Bulurejo, Petungsewu, Kec. Dau, Kabupaten Malang, Jawa Timur 65151 Malang"
Paralayang Bukit Waung,-8.3486904123944,112.36823411117,Dusun Sumberejo Rt 43 Rw 10 Desa Sumberoto Kecamatan Donomulyo Kabupaten Malang Provinsi Jawa timur Malang
Kasembon Rafting,-7.8042493169977,112.31236258658,"Jl. Turen Kepanjen, Sukosari, Bulupitu, Kec. Gondanglegi, Kabupaten Malang, Jawa Timur 65174 Malang"
Danau Bureng/Mbureng,-8.1561527192626,112.59558586952,"Jl. Turen Kepanjen, Sukosari, Bulupitu, Kec. Gondanglegi, Kabupaten Malang, Jawa Timur 65174 Malang"
pantai Damar Wulan,-7.21976,113.22209,Jl. Raya Aeng sareh Sampang Sampang
Makam Khotib Mantoh,-7.20713,113.23312,Desa Polagan Madegan Sampang Sampang
Kolam Renang Tirto Joyo,-7.8571879647602,111.4659028381,"Jalan Jawa gg 6, rt. 8, rw. 1, Kel. Mangkujayan, Kec. Ponorogo, Kab. Ponorogo Ponorogo"
Desa Wisata Tirtomarto,-8.2355808189504,112.87757828897,"Desa Tirtomarto, Kecamatan Ampelgading, Kabupaten Malang, Jawa Timur Malang"
Desa Wisata Srigonco,-8.3452237150649,112.56218552122,"Desa Srigonco, Kecamatan Bantur, Kabupaten Malang, Jawa Timur Malang"
Desa Wisata Sempalwadak,-8.0637868146566,112.64239713548,"Desa Sempalwadak, Kecamatan Bululawang, Kabupaten Malang, Jawa Timur Malang"
Desa Wisata Amadanom,-8.2227587609586,112.77288747077,"Desa Amadanom, Kecamatan Dampit, Kabupaten Malang, Jawa Timur Malang"
Desa Wisata Pamotan,-8.200699721962,112.73588582616,"Desa Pamotan, Kecamatan Dampit, Kabupaten Malang, Jawa Timur Malang"
Desa Wisata Jambangan,-8.1603827777453,112.73842418604,"Desa Jambangan, Kecamatan Dampit, Kabupaten Malang, Jawa Timur Malang"
Desa Wisata Kucur,-7.9625021528387,112.55184307695,"Desa Kucur, Kecamatan Dau, Kabupaten Malang, Jawa Timur Malang"
Desa Wisata Petungsewu,-7.9488795358827,112.5604586873,"Desa Petungsewu, Kecamatan Dau, Kabupaten Malang, Jawa Timur Malang"
Desa Wisata Landungsari,-7.9277386444304,112.59406321609,"Desa Landungsari, Kecamatan Dau, Kabupaten Malang, Jawa Timur Malang"
Desa Wisata Donomulyo,-8.2854290472329,112.42757267182,"Desa Donomulyo, Kecamatan Donomulyo, Kabupaten Malang, Jawa Timur Malang"
Desa Wisata Sidodadi,-8.3715378226368,112.65707754059,"Desa Sidodadi, Kecamatan Gedangan, Kabupaten Malang, Jawa Timur Malang"
Wisata Jatisewu Gresik,-7.1099980369356,112.89852306252,Jl. Bongso Wetan RT. 23 RW. 06 Ds. Pengalangan Kec. Menganti Gresik
Sampang Water Park ( SWP ),-7.194,113.2568,Jl. Panglima Gang V Kelurahan Rongtengah Sampang Sampang
Museum Artefac Joko Tingkir,-7.5883239,111.387971,"Desa Temboro, Kec. Karas, Kabupaten Magetan, Jawa Timur 63395 Magetan"
Wisata GerojoganJatuh Cinta,-7.8074657,112.2712461,Kepung Barat RT 13 Desa Kepung Kecamatan Kepung Kediri
Tirta Mentari,-7.7349477,111.9504069,Jl.Kediri-Nganjuk Bulusari Utara RT/RW 03/02 Tarokan Kediri Kediri
tirta selo agung,-7.8575623,112.2400024,Satak Kec.Puncu Kab.Kediri Kediri
tirta kusuma,-7.6227485,112.1018042,Ds.Muneng Purwoasri Kediri Kediri
taman petualang,-7.9004263,112.1055823,Jl.Raya Wates No 444 Kediri
Wisata Gunung Pundut,-6.9219203178592,112.44223795778,"Desa Ketanen, Kecamatan Panceng Kabupaten Gresik Gresik"
